street;zip_code;city;region;country
7893 Anzinger Road;;Nagrog;;Indonesia
92358 Ridge Oak Place;423371;Sarmanovo;;Russia
3595 Kingsford Court;99460-000;Colorado;;Brazil
3522 Vera Crossing;;Kubangwaru;;Indonesia
37 Village Road;62411 CEDEX;Béthune;Nord-Pas-de-Calais;France
2892 Moulton Pass;;Heka;;China
83898 Mccormick Trail;;Babura;;Nigeria
19338 Merchant Drive;;Jatiklampok;;Indonesia
52 Springs Lane;7509;Obršani;;Macedonia
7291 Cordelia Street;;Auas;;Honduras
0 Alpine Court;;Baiyin;;China
93216 Sunnyside Point;;Marcala;;Honduras
1696 Johnson Way;33619;Bielefeld;Nordrhein-Westfalen;Germany
7 Alpine Lane;;Hisya;;Syria
0087 Brown Trail;397815;Strelitsa;;Russia
37706 Tomscot Plaza;85801;Haapajärvi;;Finland
892 Del Sol Center;;Houxi;;China
73 Graceland Alley;;Indramayu;;Indonesia
22 Surrey Junction;;Tebluru;;Indonesia
884 Judy Crossing;;Wudian;;China
78 Duke Trail;95194;San Jose;California;United States
034 South Way;652120;Izhmorskiy;;Russia
73857 Cardinal Center;13140-000;Paulínia;;Brazil
2 Northfield Junction;;Doumen;;China
78911 Springs Pass;;South Tangerang;;Indonesia
10425 Little Fleur Lane;404172;Yeysk;;Russia
25462 Pennsylvania Drive;;El Rincón;;Panama
19466 Colorado Lane;;Cankuzo;;Burundi
25869 Talmadge Hill;08-107;Paprotnia;;Poland
6612 Armistice Alley;81506 CEDEX;Lavaur;Midi-Pyrénées;France
7100 Caliangt Parkway;;Qibu;;China
34 Warner Pass;2610-006;Amadora;Lisboa;Portugal
20890 Caliangt Trail;;Sindangjati;;Indonesia
0 Darwin Way;641730;Dalmatovo;;Russia
6508 Donald Pass;826 70;Söderhamn;Gävleborg;Sweden
4 Village Alley;;Huze;;China
62 Rockefeller Street;;Valsamáta;;Greece
8 Mccormick Trail;;Qiaotou;;China
26 Union Trail;67200;Strasbourg;Alsace;France
6 Kim Pass;;Jingyu;;China
6 Merry Terrace;;Kalān Deh;;Afghanistan
73615 Moland Parkway;;Toutuo;;China
17942 Warbler Center;;Langarūd;;Iran
188 Schlimgen Court;;Ocho Rios;;Jamaica
3 Fair Oaks Street;1134;Sydney;New South Wales;Australia
04937 Oak Valley Lane;7405;Pata;;Philippines
4366 Schiller Crossing;;Kizil;;China
9547 Sachtjen Way;443 33;Lerum;Västra Götaland;Sweden
9231 Sullivan Court;11207;Pescadería;;Dominican Republic
0 Moland Drive;2624;Magsalangi;;Philippines
4502 Burrows Avenue;169309;Ukhta;;Russia
30140 Homewood Avenue;33-111;Koszyce Wielkie;;Poland
03 Kinsman Point;10419;Kuče;;Croatia
7496 Fisk Place;689-2352;Urayasu;;Japan
2 Oakridge Park;5207;Maluanluan;;Philippines
5224 Burning Wood Circle;5602;Arcangel;;Philippines
01 Meadow Ridge Pass;668 92;Ed;Västra Götaland;Sweden
53 Gerald Point;84-310;Lębork;;Poland
7 Dakota Point;;Pampas Chico;;Peru
040 Everett Parkway;;Võhma;;Estonia
15346 Bobwhite Alley;;Savannakhét;;Laos
52 Basil Drive;134548;Morales;;Colombia
1858 Kinsman Plaza;;Dingchang;;China
322 Independence Avenue;;Tingping;;China
7 Forest Dale Lane;;Limenária;;Greece
073 Becker Avenue;520-0804;Motomiya;;Japan
57 Roxbury Alley;32274;Štitar;;Croatia
52027 Esker Lane;300-0331;Ami;;Japan
4232 Sundown Drive;357560;Svobody;;Russia
93 Eagan Circle;;Zagnitkiv;;Ukraine
45 Randy Junction;;Kanye;;Botswana
8025 Quincy Place;;Desa Werasari;;Indonesia
55 Debs Circle;;Dorūd;;Iran
9 Service Hill;70170;Na Khu;;Thailand
005 Shoshone Pass;3923;Zwettl;Niederösterreich;Austria
65 Northview Place;;Semey;;Kazakhstan
146 Ridgeway Point;;Wlingi;;Indonesia
74113 Clarendon Street;;Maputsoe;;Lesotho
28 Debra Place;183 83;Täby;Stockholm;Sweden
22 Kings Street;;Opi;;Nigeria
56397 Luster Terrace;;Cigintung;;Indonesia
65 Mccormick Terrace;65715-000;Lago da Pedra;;Brazil
8 Green Ridge Place;;Taznakht;;Morocco
004 Moulton Crossing;;Daguyun;;China
43 Golden Leaf Hill;;Pelem;;Indonesia
736 Grim Terrace;;Lenakapa;;Indonesia
404 Towne Avenue;79200-000;Aquidauana;;Brazil
809 Stoughton Alley;;Lhasa;;China
28471 Mayfield Crossing;617000;Nytva;;Russia
7129 Kinsman Junction;;Sevaster;;Albania
71849 Hazelcrest Point;;Xinzheng;;China
603 Forest Alley;397325;Krasnokamsk;;Russia
5 Corry Road;6310;Giawang;;Philippines
226 Bluejay Trail;2776;Delareyville;;South Africa
89480 Nobel Center;;Qiaojia;;China
23 Longview Point;;Kliwon Cibingbin;;Indonesia
2120 Eagan Terrace;;Yuecheng;;China
4 Basil Place;;Sipoholon;;Indonesia
7 Almo Crossing;;Anyang;;China
3333 Dwight Parkway;9987;Koffiefontein;;South Africa
885 Bellgrove Lane;;Néa Plágia;;Greece
1605 Green Ridge Pass;74041 CEDEX;Annecy;Rhône-Alpes;France
2 Division Hill;;Bīr Nabālā;;Palestinian Territory
662 Messerschmidt Alley;5606;Malicboy;;Philippines
7 Sunfield Drive;1040;Čair;;Macedonia
3340 Fordem Circle;;Palla;;Indonesia
2 Comanche Circle;309379;Golovchino;;Russia
65 Buhler Center;;Hualin;;China
70515 Haas Road;;San Bernardo;;Chile
726 Redwing Road;;Pasatan;;Indonesia
4969 Straubel Place;677907;Tabaga;;Russia
5 Arizona Pass;;Xiumei;;China
0 Hintze Hill;;Zhucun;;China
56191 Morrow Junction;8000-076;Faro;Faro;Portugal
284 Beilfuss Avenue;;Taznakht;;Morocco
050 Sage Place;9021;Butuan;;Philippines
5 Florence Trail;442 40;Kungälv;Västra Götaland;Sweden
49369 Bashford Place;2419;Sonquil;;Philippines
4926 Boyd Crossing;;Ébolowa;;Cameroon
41282 Commercial Drive;;Rejasa Kaja;;Indonesia
35012 Merchant Plaza;;Baranusa;;Indonesia
43098 Valley Edge Road;603899;Luknovo;;Russia
436 Dahle Court;97010;Bintulu;Sarawak;Malaysia
074 Arapahoe Avenue;;Tyvriv;;Ukraine
34590 Old Shore Point;;Tieshan;;China
82 Esch Crossing;;T’aebaek;;South Korea
828 Hoffman Hill;;Wantan;;China
04 Ramsey Hill;852 30;Sundsvall;Västernorrland;Sweden
4 Darwin Alley;8006;Hagonoy;;Philippines
52 Muir Point;58135-000;Esperança;;Brazil
6253 Mesta Terrace;51480;Pasrūr;;Pakistan
01 Loomis Point;1184;Oslo;Oslo;Norway
1 Dwight Park;369110;Psyzh;;Russia
28 5th Circle;;Corquín;;Honduras
89 Florence Terrace;59663 CEDEX;Villeneuve-d'Ascq;Nord-Pas-de-Calais;France
43812 Declaration Alley;;Zhouling;;China
301 Mitchell Parkway;4023;San Pedro;;Philippines
1 Trailsway Terrace;1079;Amsterdam Oud Zuid en Rivierenbuurt;Provincie Noord-Holland;Netherlands
53 Coolidge Street;;Bayt Yāshūţ;;Syria
25 Hoffman Alley;2236;Cerkvenjak;;Slovenia
1099 Carpenter Road;;Curahpacul Satu;;Indonesia
73925 Manufacturers Street;86600-000;Rolândia;;Brazil
6280 Lakewood Gardens Crossing;187789;Podporozh’ye;;Russia
08161 Sachs Plaza;674660;Dauriya;;Russia
9239 Pepper Wood Road;;Yangiqo‘rg‘on;;Uzbekistan
1373 Beilfuss Center;;Changlin;;China
05 Daystar Point;;Daja;;Indonesia
72434 Ridgeway Center;65590-000;Barreirinhas;;Brazil
911 Brown Lane;8357;Mariano Moreno;;Argentina
6 Heffernan Center;;Sanyantang;;China
6374 Sheridan Avenue;;Rambatan;;Indonesia
0 Glacier Hill Court;;Brades;;Montserrat
17 Bartillon Road;;Pajoreja;;Indonesia
2 Brickson Park Court;;Akim Swedru;;Ghana
56 Heffernan Crossing;;Marale;;Honduras
87 Victoria Crossing;;Belgrade;;Serbia
3 Cody Alley;;Dzüünharaa;;Mongolia
1381 Redwing Court;89160-000;Rio do Sul;;Brazil
18211 Welch Alley;;Campraksanta;;Indonesia
094 Quincy Point;;Axili;;China
2 Fieldstone Drive;62070 CEDEX 9;Arras;Nord-Pas-de-Calais;France
6334 Mcbride Pass;8421;San Isidro;;Philippines
9537 Sunfield Road;;Sumberagung;;Indonesia
838 Moulton Junction;;Thị Trấn Yên Thế;;Vietnam
5301 Gina Place;3742;Ngaruawahia;;New Zealand
9 Harper Alley;;Shazhuang;;China
5242 Graceland Hill;;Episkopí;;Greece
5722 Portage Street;;Jiangcheng;;China
396 Elka Alley;6050-107;Amieira do Tejo;Portalegre;Portugal
3336 Monica Lane;999-1413;Imaichi;;Japan
057 Redwing Terrace;;Fenghuangdong;;China
2517 Mccormick Alley;V9L;North Cowichan;British Columbia;Canada
21828 Anniversary Plaza;;Curahpacul Satu;;Indonesia
7 Monument Point;1121;København;Region Hovedstaden;Denmark
07505 Fieldstone Lane;37200-000;Lavras;;Brazil
68051 Green Alley;;Wanmao;;China
3 Bonner Court;;Sonzacate;;El Salvador
447 Summer Ridge Crossing;;Cojutepeque;;El Salvador
9156 Eagan Parkway;7207;San Eduardo;;Philippines
20166 Schlimgen Terrace;658059;Sannikovo;;Russia
9 Continental Hill;;Houping;;China
6257 Sage Park;;Huomachong;;China
01 Pennsylvania Plaza;;Kaka;;Turkmenistan
7 Pearson Alley;;Jinshan;;China
69 Erie Parkway;;Sumberan;;Indonesia
28 Walton Way;;Sinarwangi;;Indonesia
742 Redwing Junction;39390-000;Bocaiúva;;Brazil
488 Jenna Hill;;Tengah;;Indonesia
1011 Raven Trail;;Serere;;Uganda
464 Bellgrove Lane;;Guder Lao;;Indonesia
51 Calypso Place;9203;Matungao;;Philippines
56952 Nevada Hill;;Haixing;;China
3 Kennedy Avenue;;Tungoo;;Indonesia
948 Memorial Pass;;Chetian;;China
421 Riverside Crossing;;Yixin;;China
4228 Shelley Street;;Hanbin;;China
6512 Upham Road;;Madona;;Latvia
272 Dapin Parkway;;Panbang;;Bhutan
59507 Delaware Circle;666021;Baklashi;;Russia
299 Lake View Drive;2810;Manabo;;Philippines
61979 Blue Bill Park Pass;;Vyzhnytsya;;Ukraine
09 Harper Road;;Jiujie;;China
8983 Corben Center;634510;Timiryazevskoye;;Russia
983 Florence Road;;Kushnytsya;;Ukraine
001 Hanson Point;;Lukou;;China
0613 Cottonwood Hill;A41;Moycullen;;Ireland
30779 Atwood Point;;Shuigou;;China
7751 Mayer Court;;Tála;;Cyprus
97409 Hollow Ridge Point;7104;Rizal;;Philippines
737 Schlimgen Center;;Kaliwates;;Indonesia
7 Karstens Terrace;;Donja Mahala;;Bosnia and Herzegovina
38938 Porter Hill;;Aileu;;East Timor
04 Miller Lane;363759;Mozdok;;Russia
6 Buell Center;;Zhouzhuang;;China
71 Kipling Park;664 54;Těšany;;Czech Republic
579 Corry Terrace;3454;Buena Esperanza;;Argentina
986 Scoville Place;10805;San Juan de la Maguana;;Dominican Republic
404 Bultman Avenue;679005;Yantal’;;Russia
08 Stang Court;;Xiaogang;;China
8456 Farragut Junction;;Marabahan;;Indonesia
3 Springs Pass;;Nianqiao;;China
7 Blackbird Pass;;Rājbirāj;;Nepal
68863 Hallows Lane;;Batangafo;;Central African Republic
9285 Crescent Oaks Street;303154;Znamenskoye;;Russia
73 Trailsway Park;60674;Chicago;Illinois;United States
6 Fulton Street;9203;Matungao;;Philippines
7 Summer Ridge Court;107 07;Stockholm;Stockholm;Sweden
95372 Tony Road;;Palaió Fáliro;;Greece
6521 Briar Crest Hill;32-125;Wawrzeńczyce;;Poland
5930 Karstens Plaza;;Bukonyo;;Tanzania
639 Becker Street;;Ligonggang;;China
750 Bartelt Crossing;;Nanga Eboko;;Cameroon
2 Butternut Hill;422156;Dachnoye;;Russia
5854 Texas Court;;Krajan Pundungsari;;Indonesia
0 Morning Crossing;352555;Perepravnaya;;Russia
08 Larry Crossing;;Ketapang;;Indonesia
17 Morning Lane;48000;Nakhon Phanom;;Thailand
2291 Lawn Plaza;;El Kef;;Tunisia
9652 Donald Hill;;Travesía;;Honduras
80 Fuller Avenue;32605;Gainesville;Florida;United States
23613 Anniversary Avenue;69265 CEDEX 09;Lyon;Rhône-Alpes;France
32 Roxbury Circle;1391;Eastern Suburbs Mc;New South Wales;Australia
268 Oak Valley Court;;Krajan Dua Dawuan Wetan;;Indonesia
78 Mallard Pass;;Chengguan;;China
851 Atwood Road;659780;Mayma;;Russia
126 Boyd Way;10600;Kolonnawa;;Sri Lanka
71 Sutteridge Road;4110;Sabang;;Philippines
3 Mallory Street;309666;Pyatnitskoye;;Russia
38 Pepper Wood Street;;Shatian;;China
22 Fieldstone Crossing;;Jiumen;;China
0837 Hoard Park;13568 CEDEX 02;Marseille;Provence-Alpes-Côte d'Azur;France
05 Melrose Circle;;Qingshuitang;;China
667 Crowley Trail;84-120;Chłapowo;;Poland
35297 Wayridge Way;2820;Gualeguaychú;;Argentina
37 Elka Junction;43290;Grubišno Polje;;Croatia
53 Brentwood Trail;4970-150;Igreja;Viana do Castelo;Portugal
99 Mendota Parkway;;Ninghai;;China
38726 Donald Crossing;;Madīnat ‘Īsá;;Bahrain
65 Mendota Pass;83953 CEDEX;La Garde;Provence-Alpes-Côte d'Azur;France
80962 Elgar Alley;5401;Tamberías;;Argentina
248 Doe Crossing Park;;Xiadahe;;China
3 Mayfield Way;18650-000;São Manuel;;Brazil
5 Fordem Avenue;;Changfa;;China
23256 Barby Crossing;;Xinhang;;China
5 Lukken Center;;Jiukeng;;China
620 Ronald Regan Road;;Damasak;;Nigeria
15 Springs Pass;175260;Poddor’ye;;Russia
3 Carey Trail;;Runting;;Indonesia
84 Eastwood Place;606168;Vacha;;Russia
76428 Clarendon Lane;779-3601;Haibara;;Japan
21589 Michigan Court;18185-000;Pilar do Sul;;Brazil
27 Gina Alley;5223;Jesús María;;Argentina
0 Packers Road;93170;Pudasjärvi;;Finland
8422 International Parkway;46880-000;Itaberaba;;Brazil
8241 Barnett Parkway;;Ar Riqāb;;Tunisia
66516 Bluestem Center;;Baranovichi;;Belarus
64609 Thompson Drive;301822;Tovarkovskiy;;Russia
13058 Gulseth Circle;;Thành Phố Hạ Long;;Vietnam
06914 Miller Street;;Kerbuyan;;Indonesia
3691 Schlimgen Junction;;Abang;;Indonesia
590 Anhalt Circle;;‘Alī al Gharbī;;Iraq
52 Laurel Center;;Haysyn;;Ukraine
9 6th Court;;Chapayeve;;Ukraine
131 Lindbergh Pass;;Zarzis;;Tunisia
525 Leroy Avenue;;Huaminglou;;China
6 Moulton Street;80104 CEDEX;Abbeville;Picardie;France
388 Algoma Avenue;;Jatinagara;;Indonesia
56 Lawn Terrace;;Kanḏay;;Afghanistan
5 Valley Edge Court;;Taiba;;China
26809 Anniversary Pass;;Koson Shahri;;Uzbekistan
4973 Myrtle Road;;Jianfeng;;China
67468 Carpenter Terrace;;Cilegi;;Indonesia
794 Onsgard Hill;747 43;Gimo;Uppsala;Sweden
9648 Nevada Pass;;Mahdia;;Tunisia
3 Boyd Place;W34;Thomastown;;Ireland
984 Lerdahl Way;;Dublje;;Serbia
41 Union Parkway;;Kostarea Satu;;Indonesia
38623 Forster Junction;;Banjar Lalangpasek;;Indonesia
89839 Graedel Center;62411 CEDEX;Béthune;Nord-Pas-de-Calais;France
2373 Eastwood Alley;33160;Rasi Salai;;Thailand
894 Lerdahl Street;;Al ‘Ulá;;Saudi Arabia
00005 Lake View Circle;66-500;Strzelce Krajeńskie;;Poland
553 Granby Plaza;;Shangdundu;;China
304 Merrick Trail;997-0334;Maruoka;;Japan
54552 Melvin Way;10007;San Lorenzo;;Guatemala
15901 Pond Way;;Pacar;;Indonesia
5775 Shasta Park;08-420;Miastków Kościelny;;Poland
202 Shasta Place;;Port Loko;;Sierra Leone
32 Oxford Circle;;Rekovac;;Serbia
76723 Kings Way;;Lengkongsari;;Indonesia
375 Tennyson Lane;4805-458;Briteiros Santa Leocádia;Braga;Portugal
88515 Little Fleur Drive;63475-000;Jaguaribe;;Brazil
5 Arizona Crossing;;Jiushe;;China
1405 Upham Way;40330;Nai Harn;;Thailand
4069 Vahlen Park;6100-460;Portela;Castelo Branco;Portugal
531 Acker Street;FRN;Floriana;;Malta
2435 Macpherson Hill;3070-125;Ermida;Coimbra;Portugal
74 Mandrake Avenue;33-334;Kamionka Wielka;;Poland
13 Farwell Road;;Zākhū;;Iraq
6679 Norway Maple Alley;;Ayo;;Peru
02389 Kim Court;84-218;Łęczyce;;Poland
54391 Oxford Park;;Samdrup Jongkhar;;Bhutan
9 Jay Drive;;Boyuibe;;Bolivia
99 2nd Parkway;28-230;Połaniec;;Poland
6 Johnson Street;;Potrerillos;;Honduras
20743 Main Drive;17250-000;Bariri;;Brazil
56 Union Avenue;;Cinangsih Satu;;Indonesia
66 Pierstorff Lane;;Cluny;;Mauritius
55157 Mcguire Way;66031;Pīr jo Goth;;Pakistan
298 Mosinee Point;;Aygeshat;;Armenia
30 Briar Crest Terrace;;Wushishi;;Nigeria
628 Lukken Crossing;58503;El Salitre;Michoacan De Ocampo;Mexico
15 Porter Hill;;Ruchihe;;China
35 Logan Circle;;Hödrögö;;Mongolia
7457 Pine View Avenue;509-0201;Shibushi;;Japan
10886 Warrior Avenue;;Shani;;Nigeria
35 Corben Center;5516;Alor Setar;Kedah;Malaysia
7038 Pennsylvania Way;3520-031;Nelas;Viseu;Portugal
5 Acker Street;;Kuta;;Nigeria
82 Forest Drive;;Sidi Lamine;;Morocco
429 Algoma Crossing;;Gornja Koprivna;;Bosnia and Herzegovina
94683 Warbler Hill;;Kupang;;Indonesia
01081 Carioca Junction;;Goz Beïda;;Chad
259 Cambridge Drive;14640-000;Morro Agudo;;Brazil
9 Goodland Avenue;58-405;Krzeszów;;Poland
30594 Macpherson Trail;6013;Tapilon;;Philippines
4298 Texas Pass;;Drosáto;;Greece
007 Del Mar Circle;3501;Enrile;;Philippines
2824 Steensland Hill;32-503;Chrzanów;;Poland
15625 Maywood Parkway;;Isla Pucú;;Paraguay
381 Buell Terrace;46140;Samran;;Thailand
5228 Scott Alley;26120;Nakhon Nayok;;Thailand
5413 Birchwood Circle;;Sabanagrande;;Honduras
462 Mockingbird Park;;Gayam;;Indonesia
30 Calypso Place;;Kovilj;;Serbia
47 Stone Corner Alley;29051;Shorko;;Pakistan
2581 Mockingbird Parkway;;Chaihe;;China
5978 Stuart Hill;;Quận Tân Phú;;Vietnam
75 Butterfield Way;6008;Borbon;;Philippines
1372 Lotheville Park;;Nelipyno;;Ukraine
76628 Cardinal Road;;Nandasmo;;Nicaragua
02 Summer Ridge Junction;;Tieshan;;China
93157 Magdeline Crossing;;Koni-Djodjo;;Comoros
78 Starling Court;4726;Huillapima;;Argentina
53 Kedzie Hill;;Fuji;;China
83338 Messerschmidt Circle;4846;Arendal;Aust-Agder;Norway
7 Corscot Park;;Kikinda;;Serbia
1 Fallview Hill;172372;Vykhino-Zhulebino;;Russia
6 Ruskin Hill;;Tete;;Mozambique
7791 Novick Junction;;Kore;;Indonesia
138 Loeprich Place;;Shinkafe;;Nigeria
47394 Vera Trail;;Liudu;;China
70431 Meadow Ridge Point;694471;Tungor;;Russia
139 Mallard Terrace;53140;Pathum Thani;;Thailand
7 Manitowish Way;;Krajan Ngerdani;;Indonesia
62 Karstens Court;;Kumai;;Indonesia
035 Iowa Avenue;64017 CEDEX 9;Pau;Aquitaine;France
5 Elgar Hill;44101 CEDEX 4;Nantes;Pays de la Loire;France
4108 Mcbride Junction;;Yāsūf;;Palestinian Territory
8009 Eagan Junction;;Vũ Quang;;Vietnam
827 Jana Point;155219;Puerto Boyacá;;Colombia
77034 Cody Way;87078;Vista Hermosa;Tamaulipas;Mexico
11 Clyde Gallagher Way;;San Luis;;Honduras
13 Ramsey Lane;;El Cubolero;;Honduras
48 Village Green Trail;2513;Masarayao;;Philippines
82943 Delaware Point;;Bayt Maqdūm;;Palestinian Territory
3 Crowley Center;;Kisoro;;Uganda
31148 Dorton Trail;77404 CEDEX;Lagny-sur-Marne;Île-de-France;France
9 Oak Valley Plaza;;Galis Dua;;Indonesia
83223 Warner Court;1430;Hrastnik;;Slovenia
51646 Onsgard Plaza;309000;Prokhorovka;;Russia
37 Hagan Street;;Maintang;;China
5572 Dennis Parkway;;Leuwidamar;;Indonesia
36504 Judy Parkway;30560;Santa Cruz;Chiapas;Mexico
3 Lyons Center;;Kalaxilike;;China
77715 Farragut Center;;Ilama;;Honduras
2 Helena Parkway;96-315;Wiskitki;;Poland
5 Waywood Center;10152;Torino;Piemonte;Italy
48 Riverside Avenue;3515;Colonia Elisa;;Argentina
80 Hanover Junction;;San Lorenzo de Esmeraldas;;Ecuador
438 Magdeline Park;;Girijaya;;Indonesia
373 Mccormick Trail;;Gobang;;Indonesia
5338 Arizona Road;;Cisiih;;Indonesia
4331 Debra Circle;;Hüremt;;Mongolia
545 Anzinger Street;;Potelych;;Ukraine
867 Clarendon Center;;Da’anshan;;China
773 Norway Maple Drive;27990;San Isidro;Coahuila De Zaragoza;Mexico
67814 Magdeline Park;M5L;Melita;Manitoba;Canada
7 Arrowood Plaza;161120;Ferapontovo;;Russia
224 Manufacturers Plaza;;Bilhorod-Dnistrovs’kyy;;Ukraine
7177 Fremont Circle;;Sepolong Timur;;Indonesia
25 Becker Court;;Xingbin;;China
956 Judy Hill;91194 CEDEX;Gif-sur-Yvette;Île-de-France;France
4484 Bay Parkway;;Ciseureuheun;;Indonesia
2885 Sloan Way;;Ambelón;;Greece
186 Prairie Rose Road;;Mendenrejo;;Indonesia
4 Sunnyside Avenue;79500-000;Paranaíba;;Brazil
696 Sunfield Plaza;;Shinaihai;;China
141 Jenna Crossing;;Leiling;;China
840 Farmco Plaza;273 43;Buštěhrad;;Czech Republic
33 Lindbergh Plaza;;Taklale;;Indonesia
91 Washington Drive;83-240;Lubichowo;;Poland
25683 Logan Junction;793 51;Kněžpole;;Czech Republic
52186 Veith Avenue;;Nularan;;Indonesia
2205 Spohn Way;;Jiangfang;;China
648 Shelley Crossing;;Muzhou;;China
22859 Orin Court;191507;Puerto Tejada;;Colombia
9 Elgar Point;;Porvenir;;Uruguay
890 Twin Pines Crossing;;Séléa;;Comoros
012 Mallard Trail;;Oganlima;;Indonesia
68462 Acker Alley;;Sápes;;Greece
0 Monterey Terrace;;Speightstown;;Barbados
04193 Amoth Place;38110;Santa Cruz De Tenerife;Canarias;Spain
19 Loeprich Place;18003;El Estor;;Guatemala
734 Eastlawn Crossing;;Amvrosiyivka;;Ukraine
90 Lake View Trail;;Numan;;Nigeria
81264 American Parkway;;Pucacaca;;Peru
8313 Browning Circle;623220;Ufimskiy;;Russia
3679 Loeprich Way;30240;Ban Huai Thalaeng;;Thailand
2 Victoria Terrace;1944;Beverwijk;Provincie Noord-Holland;Netherlands
7 Graedel Crossing;;Lebak;;Indonesia
7 Corry Terrace;;Artemivs’k;;Ukraine
1678 Oak Valley Junction;;Perené;;Peru
92 Thierer Way;39280;Las Animas;Guerrero;Mexico
9665 Trailsway Pass;47-232;Raszowa;;Poland
76 Carey Place;;Pacet;;Indonesia
38826 Stone Corner Point;;Gande;;China
39027 Bay Way;;Lazi;;Ukraine
5557 Bellgrove Place;74184;Tulsa;Oklahoma;United States
78551 Dexter Center;5090-017;Sobreira;Vila Real;Portugal
72 Holy Cross Street;;Olmos;;Peru
798 Donald Hill;141896;Novosin’kovo;;Russia
53 Morningstar Plaza;6131;San Juan de Mata;;Philippines
98 Cody Parkway;;Dayr Sāmit;;Palestinian Territory
0299 Sugar Way;3306;Minante Segundo;;Philippines
68686 Dunning Alley;;Texistepeque;;El Salvador
919 Talmadge Plaza;;Arasji;;Aruba
211 Maple Wood Plaza;87-851;Boniewo;;Poland
02737 Magdeline Center;;Labuhanlalar;;Indonesia
01 Florence Center;;Fushë-Bulqizë;;Albania
12 Starling Crossing;;Chishan;;China
6687 1st Court;28360;Jīwani;;Pakistan
7855 Hintze Hill;;Mensalong;;Indonesia
0 Valley Edge Road;2510-015;A-da-Gorda;Leiria;Portugal
54 Lotheville Place;13150-000;Cosmópolis;;Brazil
783 Waubesa Trail;612140;Darovskoy;;Russia
1 Aberg Hill;;Nigríta;;Greece
2997 Golf Park;;Sicheng;;China
679 Coleman Lane;788-0363;Sukumo;;Japan
67258 Hayes Pass;42250;Lepoglava;;Croatia
2 Bonner Hill;433452;Novopokrovka;;Russia
1 Fuller Trail;;La Coipa;;Peru
97 Mcguire Way;9037;Tromsø;Troms;Norway
40808 Thompson Junction;;Heishan;;China
82 Union Center;;Beruniy;;Uzbekistan
7630 Ruskin Pass;;Chengqiao;;China
09626 Meadow Ridge Terrace;8301;San Miguel;;Philippines
78150 Blaine Place;;Maopingchang;;China
81148 Quincy Terrace;60624;Chicago;Illinois;United States
31 Redwing Terrace;;Naifaru;;Maldives
329 Buena Vista Parkway;7018;Tungawan;;Philippines
03 Continental Way;;Veselynove;;Ukraine
72766 Lotheville Alley;;Kebonsari Kidul;;Indonesia
79 Packers Hill;;Blumbang;;Indonesia
2 Mallory Road;37072 CEDEX 2;Tours;Centre;France
59008 Golden Leaf Trail;1114;Tumbagaan;;Philippines
41017 Bunker Hill Trail;;Pingshan;;China
8 Homewood Court;;Xinle;;China
4 New Castle Center;L9N;Newmarket;Ontario;Canada
2 Southridge Alley;;Weitian;;China
01803 Schmedeman Crossing;3405-425;Seixo da Beira;Coimbra;Portugal
62829 Maywood Trail;;Wenlin;;China
09256 Ronald Regan Court;;Bohou;;China
50 Steensland Lane;374 01;Trhové Sviny;;Czech Republic
5 Weeping Birch Drive;;Cliza;;Bolivia
0 Ramsey Court;;Rumenka;;Serbia
36887 Crest Line Way;;San Agustin;;Peru
5010 Mosinee Center;141146;Fryanovo;;Russia
240 Scott Road;88850-000;Forquilhinha;;Brazil
939 Buell Park;55840-000;Lagoa do Itaenga;;Brazil
27 West Road;;Gading;;Indonesia
82525 Elka Hill;3005;Alicante/Alacant;Comunidad Valenciana;Spain
76643 Gerald Crossing;;Masachapa;;Nicaragua
337 Everett Center;;Ansongo;;Mali
37808 Jenifer Point;2530-285;Sobral;Lisboa;Portugal
0045 Graceland Circle;;Somanda;;Tanzania
73 Packers Hill;;Camgyai;;China
0504 Parkside Hill;71000;Thap Khlo;;Thailand
15 Charing Cross Road;;Jiangpan;;China
14 Mcbride Way;;Yitang;;China
585 Weeping Birch Court;461 25;Trollhättan;Västra Götaland;Sweden
66 Corry Circle;;Bambous Virieux;;Mauritius
8042 American Park;N5A;Hantsport;Nova Scotia;Canada
88226 Ryan Center;;Jatisari;;Indonesia
8178 Larry Plaza;;Kolodenka;;Ukraine
2799 Carberry Avenue;;Weichanglu;;China
75743 Moose Lane;;Jianchang;;China
76 Heffernan Way;3525;Semirara;;Philippines
9817 Moose Plaza;31110;Non Suwan;;Thailand
75852 Graedel Center;8421;San Isidro;;Philippines
5 Monica Road;4830-433;Breia;Braga;Portugal
4455 3rd Center;;Dongsheng;;China
7 Ohio Street;2400-013;Leiria;Leiria;Portugal
92224 Reinke Court;357408;Vinsady;;Russia
9 Loeprich Road;5436;Dordrecht;;South Africa
026 Hermina Circle;;Tongliao;;China
086 Longview Place;;Xiadingjia;;China
49 Gina Circle;;Dengzhou;;China
5552 Loeprich Way;;El Bálsamo;;Honduras
7520 Spohn Way;;Stari Kuty;;Ukraine
159 Laurel Avenue;;Qiligang;;China
319 Annamark Point;70160;Bang Phae;;Thailand
06 Waywood Pass;14-230;Zalewo;;Poland
071 Red Cloud Circle;;Simpang Ulim;;Indonesia
7576 Talmadge Drive;;Zhuzuo;;China
0896 Banding Park;160034;Vologda;;Russia
1 Monica Place;;Sauce;;Uruguay
7947 Warbler Way;357-0211;Hannō;;Japan
3483 Monterey Avenue;;Balkanabat;;Turkmenistan
6328 Sunfield Road;429174;Shemursha;;Russia
4347 Mariners Cove Point;4805-358;Ronfe;Braga;Portugal
7 South Hill;;Watodei;;Indonesia
74 American Circle;;Yoro;;Honduras
31581 Gale Crossing;6539;Nijmegen;Provincie Gelderland;Netherlands
9620 Dorton Parkway;;Chongxing;;China
6466 Glacier Hill Junction;2720;Zoetermeer;Provincie Zuid-Holland;Netherlands
94 Express Trail;47302;Oštarije;;Croatia
582 Mifflin Road;;Koubia;;Guinea
5303 Graceland Avenue;4518;Yuto;;Argentina
2437 Waywood Alley;10150;New York City;New York;United States
0241 Montana Circle;;Toyós;;Honduras
5326 1st Circle;;Jieting;;China
8018 Gulseth Junction;;Sumberbaru;;Indonesia
41 Doe Crossing Place;;Bandar-e Ganāveh;;Iran
01604 Melody Terrace;N8M;Pilot Butte;Saskatchewan;Canada
0 Vernon Hill;24118;Kiel;Schleswig-Holstein;Germany
0673 Maple Wood Pass;;Zaliznychne;;Ukraine
117 Marquette Point;;Nancun;;China
62827 Brown Road;;Jiuheyuan;;China
75592 Iowa Crossing;353993;Novorossiysk;;Russia
99819 Express Way;6262;Kičevo;;Macedonia
0 Melody Road;939-2759;Kuragaki-kosugi;;Japan
849 Northland Circle;;Jinqiao;;China
4174 Southridge Drive;;Bombu;;Indonesia
3018 Mayer Alley;;Batulayang;;Indonesia
8529 Banding Parkway;;Buđanovci;;Serbia
77600 Eastlawn Point;84400-000;Prudentópolis;;Brazil
72 Marquette Lane;;Alofi;;Niue
453 Towne Place;;Jiantang;;China
4084 Weeping Birch Plaza;969-1783;Tottori;;Japan
32 Buell Lane;70000-000;Brasília;;Brazil
6166 Loftsgordon Street;3524;Alannay;;Philippines
350 Commercial Trail;;Ampelákia;;Greece
72 Nelson Circle;;Xiaochuan;;China
0 Stuart Plaza;5782;Waipawa;;New Zealand
6110 Jenifer Terrace;;Donetsk;;Ukraine
313 Ridgeway Pass;4201;Santa Rita Aplaya;;Philippines
03956 International Hill;533 13;Řečany nad Labem;;Czech Republic
05 West Park;;Jayune;;Peru
7 Merchant Point;;Laixi;;China
65 Dottie Way;45450-000;Gandu;;Brazil
3 Fair Oaks Point;E1W;Pemberton;British Columbia;Canada
8950 Kings Junction;2865-613;Morgados;Setúbal;Portugal
164 Farragut Lane;5899;Adelaide Mail Centre;South Australia;Australia
298 Lotheville Center;52405;Cedar Rapids;Iowa;United States
7 Bartelt Trail;;Al Fukhkhārī;;Palestinian Territory
138 Del Mar Terrace;301806;Kaltan;;Russia
30193 Melrose Circle;35150-000;Açucena;;Brazil
8038 Warbler Street;;Yilongyong;;China
6 Blue Bill Park Circle;7250;Picton;;New Zealand
84 Mallard Place;;Kufayrit;;Palestinian Territory
0751 Reindahl Point;5001;Aganan;;Philippines
0 Almo Place;;Norakert;;Armenia
564 Wayridge Court;;Rainis;;Indonesia
9 Bultman Parkway;6130;La Carlota;;Philippines
4477 Clemons Terrace;;Zhangwan;;China
02 Lindbergh Plaza;23-210;Kraśnik;;Poland
76797 Tennessee Plaza;;Surulangun Rawas;;Indonesia
662 Dakota Pass;677027;Yakutsk;;Russia
38 Thackeray Road;;Sukorejo;;Indonesia
2 La Follette Crossing;33-160;Ryglice;;Poland
3633 Dahle Court;L-8711;Boevange-sur-Attert;;Luxembourg
11429 Melrose Parkway;646575;Baryshevo;;Russia
37 Evergreen Crossing;;Amuru;;Uganda
1 Milwaukee Junction;56180-000;Cabrobó;;Brazil
79329 Merchant Lane;64145 CEDEX;Billère;Aquitaine;France
81051 Badeau Lane;;Tozeur;;Tunisia
56 Alpine Center;;Gelemso;;Ethiopia
473 Eagle Crest Alley;;Mahekou;;China
0 Steensland Alley;;Bektemir;;Uzbekistan
829 Veith Center;;Longka;;Indonesia
84 Hoepker Trail;;Bakhmach;;Ukraine
943 Melvin Place;64504;Saint Joseph;Missouri;United States
711 Jenifer Court;806;Oslo;Oslo;Norway
84469 Alpine Court;11102;Monte Plata;;Dominican Republic
309 Logan Avenue;33000;Virovitica;;Croatia
34 Garrison Street;;Shaoyang;;China
3 Roxbury Crossing;;Chiduo;;China
2860 Grover Drive;;Jianling;;China
0 Loftsgordon Terrace;9034;Cajolá;;Guatemala
12397 Jana Junction;21292;Srinjine;;Croatia
375 Old Shore Court;652849;Myski;;Russia
0 Crownhardt Court;;Kuma;;Indonesia
61 Parkside Parkway;;Cholargós;;Greece
9 Eagle Crest Parkway;53263;Milwaukee;Wisconsin;United States
00777 Mandrake Avenue;;Izyaslav;;Ukraine
769 Merchant Court;;Jiangkou;;China
73140 Hagan Crossing;;Danchang;;China
58188 Rowland Alley;368157;Kalininaul;;Russia
15 Ohio Center;;Anabar;;Nauru
06 Tennessee Pass;75694;Guadalupe Victoria;Puebla;Mexico
90 Park Meadow Point;5009;Anilao;;Philippines
04277 Washington Terrace;11054;Port Washington;New York;United States
2047 Melby Court;;El Alto;;Peru
5 Mayer Plaza;238158;Chernyakhovsk;;Russia
11488 Moland Point;37129;Verona;Veneto;Italy
27 Merry Plaza;51700;San Miguel;Mexico;Mexico
507 Cambridge Avenue;;Zhangbang;;China
912 Forster Terrace;9940-035;Prainha de Baixo;Ilha do Pico;Portugal
267 Holy Cross Way;;Mocho;;Jamaica
527 Lakewood Place;;Ondangwa;;Namibia
68 Green Plaza;;Huanggang;;China
883 Glacier Hill Alley;78-450;Grzmiąca;;Poland
726 Arapahoe Crossing;86083 CEDEX 9;Poitiers;Poitou-Charentes;France
70 Rieder Junction;3403;Daykitin;;Philippines
4717 Mcguire Point;;Khondāb;;Iran
31100 Macpherson Road;72199;North Little Rock;Arkansas;United States
81 Homewood Street;;Valjevo;;Serbia
6203 Lien Pass;999-8531;Yuza;;Japan
7 Fallview Place;;Ganquan;;China
2628 Trailsway Center;4103;Imus;;Philippines
81 Warbler Crossing;55900-000;Goiana;;Brazil
58 Lyons Way;;Dawang;;China
4 Dryden Terrace;;Huanghe;;China
81532 Ohio Center;70211;Shāhdādkot;;Pakistan
71 Northland Circle;;Hongqiao;;China
0484 Straubel Parkway;;Sadek;;Vietnam
59 Bartillon Circle;5125;Malvinas Argentinas;;Argentina
07 Upham Street;;Trảng Bom;;Vietnam
36 Kings Court;;Bururi;;Burundi
7071 Marquette Way;20359;Hamburg;Hamburg;Germany
0909 Fisk Alley;659410;Shubenka;;Russia
0 Dapin Avenue;250 66;Zdiby;;Czech Republic
50 Heath Alley;;Ti-n-Essako;;Mali
6 Lakeland Avenue;;Anjozorobe;;Madagascar
3203 Red Cloud Parkway;;Shuangxikou;;China
8 Jenna Circle;;Binkolo;;Sierra Leone
2 Memorial Trail;;Chagou;;China
054 Ramsey Avenue;;Santa Eulalia;;Peru
1 Hoffman Place;36-221;Blizne;;Poland
2710 Messerschmidt Way;;Jingning Chengguanzhen;;China
8 Paget Trail;;Nangerang;;Indonesia
40334 Donald Terrace;;Homa Bay;;Kenya
00352 Pankratz Center;;Jinka;;Ethiopia
11087 Tennessee Road;36415-000;Congonhas;;Brazil
9 Dwight Pass;;Yanglinwei;;China
41 Rowland Parkway;;Āl Ma‘ūdah;;Yemen
0876 Scofield Parkway;;Quận Bốn;;Vietnam
02 Esker Alley;;Sempol;;Indonesia
2 Glendale Lane;;Émponas;;Greece
73959 Dennis Crossing;53088;Akademija (Kaunas);;Lithuania
26409 Sutherland Trail;5507;Looc;;Philippines
65 Delaware Point;;Pepayan;;Indonesia
37 Merrick Park;188992;Svetogorsk;;Russia
604 Spaight Junction;;Hisya;;Syria
3566 Pepper Wood Pass;;‘Abs;;Yemen
82 Brentwood Center;;Nailung;;China
2001 Boyd Alley;1771;Randfontein;;South Africa
56158 Transport Lane;296 24;Åhus;Skåne;Sweden
544 Holmberg Point;777 34;Smedjebacken;Dalarna;Sweden
36174 Russell Terrace;56109 CEDEX;Lorient;Bretagne;France
47 Hansons Center;;Mazowe;;Zimbabwe
8734 Hovde Parkway;;Tawangrejo;;Indonesia
1 Ridge Oak Court;57052 CEDEX 02;Metz;Lorraine;France
71 Lillian Point;;Cipeucang;;Indonesia
54340 Trailsway Park;63136;Saint Louis;Missouri;United States
06 Fremont Crossing;;Cogreg Wetan;;Indonesia
657 Prentice Hill;;Quế Sơn;;Vietnam
79454 Buell Terrace;9674;Winschoten;Provincie Groningen;Netherlands
8675 Cordelia Lane;;Minian;;Indonesia
54089 Stephen Point;;Jagabaya Dua;;Indonesia
68759 Red Cloud Pass;6905;Stamford;Connecticut;United States
595 Dawn Place;;Wenfu;;China
01 Evergreen Junction;44629;Herne;Nordrhein-Westfalen;Germany
8 Harper Point;5385;Tama;;Argentina
2639 Superior Pass;;Wahang Dua;;Indonesia
339 Orin Way;177007;Belalcazar;;Colombia
4 Troy Place;;Baikui;;China
7401 Bartillon Junction;9545-214;Fenais da Luz;Ilha de São Miguel;Portugal
0 Homewood Place;5510;Lalmanirhat;;Bangladesh
09 Calypso Street;1174;Andop;;Philippines
716 Ohio Terrace;;Nanying;;China
730 Lakewood Trail;;Kihangara;;Tanzania
4823 Johnson Pass;2640-394;Mafra;Lisboa;Portugal
79601 Golf Course Place;;Lezhu;;China
67 Sullivan Court;;San Agustin;;Peru
070 Maryland Point;;Qiaosi;;China
154 Roxbury Avenue;678620;Ust-Maya;;Russia
26 Twin Pines Junction;521529;La Unión;;Colombia
684 Riverside Point;60193;Schaumburg;Illinois;United States
58 Eastlawn Parkway;;Zhucun;;China
7 Petterle Trail;;Hechuan;;China
36189 Laurel Hill;;Masebewa;;Indonesia
7 Rieder Plaza;5030-473;Santa Marta de Penaguião;Vila Real;Portugal
618 Barnett Park;;António Enes;;Mozambique
2 Melby Hill;;Jaqué;;Panama
60726 Carioca Lane;9318;Digdig;;Philippines
252 Buhler Avenue;303622;Olenegorsk;;Russia
5 Corry Terrace;;‘Arad;;Israel
0 Grim Parkway;;Novomykolayivka;;Ukraine
7414 Hoard Street;;Palaiomonástiron;;Greece
2532 Delladonna Court;;Wujing;;China
17879 Kinsman Center;7644;Kaiapoi;;New Zealand
873 Sachs Park;10004;New York City;New York;United States
88 Burrows Way;;Taihe;;China
6 Maple Wood Trail;;Linquan;;China
38 Hansons Park;186326;Novaya Derevnya;;Russia
23344 Bluejay Pass;;Bāsht;;Iran
7 Old Shore Avenue;687 38;Nedakonice;;Czech Republic
27 Sloan Junction;1870;Lanús;;Argentina
24318 Mcbride Parkway;;Dongting;;China
0 Luster Avenue;76140;Khao Yoi;;Thailand
21978 Longview Road;9408;Carmen;;Philippines
2084 Memorial Junction;3122;Lupao;;Philippines
81 Lien Trail;23605;Newport News;Virginia;United States
7 Dahle Alley;;Ai Tu;;Vietnam
76107 Kim Parkway;;Jiantang;;China
275 Talmadge Circle;5301;Aminga;;Argentina
43466 Nevada Avenue;;Lueng Putu;;Indonesia
025 Schlimgen Plaza;87-401;Golub-Dobrzyń;;Poland
1413 Morning Circle;2776;Delareyville;;South Africa
5822 Scofield Point;;Yên Bái;;Vietnam
061 Reindahl Pass;;Muhoroni;;Kenya
78091 7th Way;18105;Allentown;Pennsylvania;United States
1789 Starling Way;;Qushi’an;;China
249 Kim Crossing;;Huallanca;;Peru
0243 David Alley;;Hongchuan;;China
5194 Russell Place;32253;Komletinci;;Croatia
224 Derek Junction;;Chuandao;;China
23237 Darwin Drive;M3H;North York;Ontario;Canada
94557 Fairfield Junction;;Ponta do Sol;;Cape Verde
89831 High Crossing Terrace;;Lianhua;;China
1 Anderson Point;164 45;Kista;Stockholm;Sweden
9096 Anhalt Point;;Cipondok;;Indonesia
80775 Anderson Pass;;Rizómata;;Greece
1 Division Alley;48744;San Pedro;Jalisco;Mexico
4 Lawn Hill;;Geoktschai;;Azerbaijan
91 Sutherland Road;;Bayan;;China
72410 Randy Hill;;Khūgyāṉī;;Afghanistan
3 Badeau Place;6030-006;Vila Velha de Ródão;Castelo Branco;Portugal
7 Dayton Lane;;Margamukti;;Indonesia
010 Crownhardt Plaza;2016;Apalit;;Philippines
435 Elmside Plaza;666 32;Bengtsfors;Västra Götaland;Sweden
76 Vera Plaza;12400-000;Pindamonhangaba;;Brazil
9 Russell Place;93104 CEDEX;Montreuil;Île-de-France;France
9572 Hagan Court;;Xiaogang;;China
6 Hallows Court;5631;Chilmāri;;Bangladesh
21 Fuller Street;;Jiaoyuan;;China
52 Ramsey Point;;Agnibilékrou;;Ivory Coast
71 Katie Circle;;Dongsheng;;China
20 Sunfield Parkway;;Markala;;Mali
8782 Ridge Oak Pass;;Kowang Utara;;Indonesia
92 Hagan Trail;;Jingdang;;China
66169 Utah Avenue;;Hengxi;;China
4 Calypso Hill;58-580;Szklarska Poręba;;Poland
341 Becker Court;;Parumasan;;Indonesia
7 Eagan Point;;Huangjindong;;China
5350 Moland Hill;;Xinjian;;China
42 Moulton Crossing;427010;Pirogovo;;Russia
8 Farragut Plaza;368326;Khadzhalmakhi;;Russia
978 New Castle Junction;52140;Wang Thonglang;;Thailand
4 Gerald Center;;Baima;;China
747 Nancy Junction;;Pailou;;China
3203 Tony Road;;Kuntong;;China
825 Beilfuss Terrace;632351;Kuybyshev;;Russia
728 Melby Parkway;80044;Aurora;Colorado;United States
580 Thompson Pass;675 31;Louka;;Czech Republic
80543 Buhler Road;;Ülken;;Kazakhstan
8 American Circle;;Ambam;;Cameroon
9 Esker Court;9408;Carmen;;Philippines
5836 Elgar Place;94330;Solidaridad;Veracruz Llave;Mexico
3222 Kinsman Point;793-0213;Saijō;;Japan
217 Ohio Lane;;Huayuan;;China
75 Thompson Hill;13140-000;Paulínia;;Brazil
56 Colorado Park;551 01;Jaroměř;;Czech Republic
85 Bobwhite Avenue;21006;Monjas;;Guatemala
33482 Boyd Hill;4703;Little Baguio;;Philippines
48507 Dwight Circle;966-0847;Machida;;Japan
0 Dakota Junction;599 92;Ödeshög;Östergötland;Sweden
67 Village Court;;Florencia;;Cuba
71 Iowa Street;22004;Agua Blanca;;Guatemala
070 Heffernan Place;2313;Razvanje;;Slovenia
3471 7th Circle;;Boro;;Indonesia
758 Moulton Way;;Juhaynah;;Egypt
2 Bluestem Pass;;Gongqiao;;China
6950 West Crossing;D10;Gort;;Ireland
66 Pierstorff Parkway;;Libu;;China
32 Grover Point;3318;Pagsabangan;;Philippines
3 Old Gate Alley;49120;Don Tan;;Thailand
3184 Calypso Avenue;;Changfeng;;China
24 Dwight Street;75210;Dallas;Texas;United States
76 Merrick Alley;183 77;Täby;Stockholm;Sweden
2 Red Cloud Point;;As Suwaydā;;Yemen
9 Hollow Ridge Circle;;Smara;;Western Sahara
9 Bunting Center;9847;Riverton;;New Zealand
95074 Evergreen Hill;2437;Palguyod;;Philippines
849 Algoma Point;22710;Föglö;;Aland Islands
8975 Memorial Trail;;Hualingang;;China
047 Towne Alley;;Bradag;;Indonesia
2 Sunfield Hill;;Maglajani;;Bosnia and Herzegovina
46643 Rockefeller Pass;;Todorovo;;Bosnia and Herzegovina
884 Dunning Parkway;08600-000;Suzano;;Brazil
03594 Eggendart Crossing;357838;Lysogorskaya;;Russia
516 Shelley Lane;;Jinshan;;China
4 Grayhawk Way;;Cibiru;;Indonesia
24 Monument Court;4360;Karlovo;;Bulgaria
9603 Mandrake Terrace;;Monastir;;Tunisia
5 Fair Oaks Plaza;;Hangwula;;China
542 Maple Point;88385-000;Penha;;Brazil
04368 Claremont Lane;;Dongshi;;China
040 Swallow Parkway;;Gložan;;Serbia
4 Fremont Point;;Ma‘arrat an Nu‘mān;;Syria
17 Commercial Center;;Pengilon;;Indonesia
43 Upham Park;31-827;Dzików Stary;;Poland
2 Fisk Plaza;23237;Richmond;Virginia;United States
8 Glendale Hill;;Xiaomiaozi;;China
9 Upham Road;;Nepeña;;Peru
7045 Jenifer Parkway;;Yanggu’ao;;China
393 Loftsgordon Park;;Xiaochi;;China
45 Hoffman Park;H9G;Lillooet;British Columbia;Canada
51 Blaine Plaza;76105-000;Firminópolis;;Brazil
7460 Grover Junction;;Kampungmasjid;;Indonesia
0802 Ramsey Park;665061;Novobiryusinskiy;;Russia
0 Ilene Trail;;Tarub;;Indonesia
964 Hoard Junction;;Shanxiahu;;China
3 Westridge Junction;;Xicheng;;China
3677 Oak Valley Circle;;Sabana de Parra;;Venezuela
5910 Banding Pass;164509;Severodvinsk;;Russia
47 Schiller Park;7210;Hermanus;;South Africa
6 Merrick Parkway;;Jāsim;;Syria
5910 Harbort Plaza;5849;Bergen;Hordaland;Norway
21 Burrows Circle;;Tangqian;;China
9069 Pennsylvania Drive;;Khulo;;Georgia
956 Magdeline Street;46175;San Francisco;Jalisco;Mexico
438 Loomis Circle;11130;Ratchathewi;;Thailand
9006 Tennyson Street;2445;Tayug;;Philippines
35 Talisman Drive;4650-669;Telheira;Porto;Portugal
6 Summit Crossing;;Orahovac;;Kosovo
170 Moose Junction;;Oygon;;Mongolia
01379 Lien Plaza;;Shatian;;China
552 Messerschmidt Plaza;751 22;Osek nad Bečvou;;Czech Republic
108 Dexter Place;W34;Thomastown;;Ireland
41698 Lillian Road;;Gaborone;;Botswana
1634 Claremont Place;;Puerto Cumarebo;;Venezuela
15025 Carey Pass;;Huangpo;;China
990 Monterey Parkway;;Bhokadoke;;Indonesia
78 Village Green Park;;Gornje Živinice;;Bosnia and Herzegovina
13380 Loomis Terrace;;Zarzis;;Tunisia
69532 Fairfield Trail;;Yidao;;China
584 Moulton Alley;;Stýpsi;;Greece
07 Stoughton Circle;88564;Kota Kinabalu;Sabah;Malaysia
345 Truax Junction;;Bali;;Cameroon
6248 Blaine Center;;Sishui;;China
151 Lakewood Gardens Drive;2430;Minien East;;Philippines
65098 High Crossing Trail;37-312;Łętownia;;Poland
26447 Fairfield Way;;Tingzhou;;China
38 Lighthouse Bay Road;;Jiaoxiyakou;;China
3720 Oxford Alley;;Liquica;;East Timor
771 Waywood Lane;83087;Palmar de Varela;;Colombia
8631 Arkansas Parkway;;Mosfilotí;;Cyprus
83288 Jenifer Plaza;;Cisaat;;Indonesia
3945 Waxwing Plaza;8304;Emmeloord;Provincie Flevoland;Netherlands
42113 John Wall Court;610-0331;Tanabe;;Japan
7355 Fremont Plaza;32128;Daytona Beach;Florida;United States
2071 Brown Trail;;Namyang-dong;;North Korea
3 Reindahl Place;5105;Santa Cruz;;Philippines
1 Southridge Place;;Metulla;;Israel
4190 East Way;;Dawuhan;;Indonesia
3 Farragut Pass;;Itacurubí del Rosario;;Paraguay
1 Dexter Hill;;Anxi;;China
42910 Kropf Place;612730;Lesnyye Polyany;;Russia
4478 Bay Plaza;;Padangcermin;;Indonesia
1 Kennedy Hill;;Jurangjero;;Indonesia
67 Warner Place;;Santa Bárbara;;Venezuela
1 School Park;3081;Dundee;;South Africa
76485 Maple Wood Place;;Ḩāfiz̧ Moghul;;Afghanistan
8802 Center Pass;;Laraos;;Peru
58831 Loftsgordon Point;756 14;Francova Lhota;;Czech Republic
98 Ridgeview Circle;;Dayr Mawās;;Egypt
18529 Fremont Avenue;7213;Concepcion;;Philippines
86455 Donald Road;;Pateh Sam;;Gambia
19 Coolidge Center;;Layo;;Peru
847 Hayes Circle;4200;Santiago del Estero;;Argentina
372 Kim Point;95-083;Lutomiersk;;Poland
1 Warbler Point;;Fengxizhai;;China
0672 Knutson Street;357 09;Habartov;;Czech Republic
81 Sugar Plaza;6227;San Juan;;Philippines
304 Hollow Ridge Place;;Murun-kuren;;Mongolia
6321 International Plaza;396841;Karpogory;;Russia
1 Fallview Hill;;Nangabulik;;Indonesia
771 Mayfield Park;40324;Goričan;;Croatia
716 Bunting Court;;Kryvyy Rih;;Ukraine
2 Hintze Center;;Andkhōy;;Afghanistan
73 Memorial Alley;;Chechenglu;;China
560 Old Shore Lane;;La Ligua;;Chile
2 Autumn Leaf Center;42-580;Psary;;Poland
3053 Granby Avenue;10109;La Julia;;Dominican Republic
1798 Westport Court;;Sumberan;;Indonesia
5426 Meadow Valley Lane;66-008;Świdnica;;Poland
52459 Scofield Avenue;26953 CEDEX 9;Valence;Rhône-Alpes;France
218 Parkside Center;;Lewotukan;;Indonesia
6595 Forest Dale Way;;Chapayeve;;Ukraine
9957 Memorial Point;;Gambiran;;Indonesia
52021 Monument Parkway;2695-584;Vale de Figueira;Lisboa;Portugal
27988 Waywood Drive;2720;Zoetermeer;Provincie Zuid-Holland;Netherlands
56401 Sheridan Park;;Al ‘Ayzarīyah;;Palestinian Territory
8 Petterle Alley;86430-000;Santo Antônio da Platina;;Brazil
3 Dottie Street;72-510;Wolin;;Poland
12950 Elgar Junction;;Hengshi;;China
88694 Loomis Hill;649240;Chemal;;Russia
48500 Rowland Park;7420;Jhingergācha;;Bangladesh
6348 Golden Leaf Pass;;Graikochóri;;Greece
4 Bluestem Center;;Nambak Tengah;;Indonesia
2807 Sherman Terrace;;Wengyang;;China
7 Dennis Alley;;Zahedan;;Iran
0 Calypso Parkway;78930-000;Ariquemes;;Brazil
02 Eastlawn Avenue;8610;Tawan tawan;;Philippines
84930 Caliangt Terrace;;Puan Selatan;;Indonesia
4073 Havey Crossing;2890-206;Samouco;Setúbal;Portugal
18810 Riverside Hill;;Larangan;;Indonesia
4392 Declaration Place;696 13;Šardice;;Czech Republic
11 7th Street;L5W;Mississauga;Ontario;Canada
4165 Sauthoff Road;8217;Nesebar;;Bulgaria
902 Ruskin Plaza;;Ventanas;;Ecuador
3972 Mayer Alley;9850-068;Biscoitos;Ilha de São Jorge;Portugal
2 Bay Point;5103;Macapsing;;Philippines
261 Bonner Road;;Jandir;;Indonesia
060 Eastlawn Avenue;;Xiaozhi;;China
469 Blue Bill Park Point;2955-004;Pinhal Novo;Setúbal;Portugal
04 Vahlen Alley;32-400;Myślenice;;Poland
84156 8th Crossing;;Xilu;;China
980 Forster Circle;;Sidu;;China
1 Mendota Crossing;102 27;Stockholm;Stockholm;Sweden
6 Sheridan Way;641334;Ketovo;;Russia
92564 Morrow Crossing;39004 CEDEX;Lons-le-Saunier;Franche-Comté;France
104 Northport Trail;;Qujing;;China
038 Florence Point;79783;San Rafael;San Luis Potosi;Mexico
16 Hudson Court;666021;Baklashi;;Russia
21 Burrows Street;;Lianghu;;China
8563 Fremont Court;10170;Taling Chan;;Thailand
9 Nancy Road;;Zhouji;;China
8 Lake View Hill;H9P;Dollard-Des Ormeaux;Québec;Canada
364 Rigney Lane;44640-000;Riachão do Jacuípe;;Brazil
6270 Rockefeller Junction;94745 CEDEX;Arcueil;Île-de-France;France
271 Mockingbird Lane;;Dembī Dolo;;Ethiopia
3702 Dexter Way;73028;Skaudvilė;;Lithuania
17 Saint Paul Alley;791 21;Falun;Dalarna;Sweden
9604 High Crossing Court;;Khulo;;Georgia
6621 Steensland Court;L-4982;Reckange-sur-Mess;;Luxembourg
54 Mitchell Point;;Baisha;;China
8658 Weeping Birch Place;;Penebel;;Indonesia
2 Drewry Avenue;;Shicheng;;China
5415 Cambridge Trail;;Budva;;Montenegro
72 Ludington Park;;New Yekepa;;Liberia
6 Thackeray Crossing;;Lugovoy;;Kazakhstan
88 Dexter Way;925-0215;Izumo;;Japan
0060 Mendota Pass;G7K;Saguenay;Québec;Canada
6436 Macpherson Parkway;363001;Livadiya;;Russia
10013 Southridge Park;;Bojonegoro;;Indonesia
766 Kingsford Hill;794-2550;Innoshima;;Japan
30 Hudson Terrace;98-273;Klonowa;;Poland
3 Sunnyside Way;;Utan;;Indonesia
26088 Derek Point;;Gagarawa;;Nigeria
509 Delladonna Circle;10030;San José El Ídolo;;Guatemala
31 Kedzie Place;5150-015;Almendra;Guarda;Portugal
728 Namekagon Place;10184;New York City;New York;United States
7 West Park;4880-076;Bilhó;Vila Real;Portugal
09233 Del Sol Terrace;6534;Labnig;;Philippines
3631 Pawling Lane;404480;Chernyshkovskiy;;Russia
9 Sheridan Crossing;;Macun;;China
5 Truax Plaza;9790;Thaba Nchu;;South Africa
20703 Waubesa Center;622937;Krasnaya Polyana;;Russia
9 6th Junction;;Hejiayan;;China
98 Atwood Way;4620-620;Quintães;Porto;Portugal
5051 Waywood Lane;V7X;Wabana;Newfoundland and Labrador;Canada
0360 Hermina Drive;9171;Longyearbyen;;Svalbard and Jan Mayen
13 Judy Center;;Makiv;;Ukraine
8 Debs Street;798 43;Ptení;;Czech Republic
31 Red Cloud Street;;Ourovéni;;Comoros
63142 Northfield Court;;Thủ Thừa;;Vietnam
8 Oak Road;;Zhangqing;;China
75033 Sheridan Terrace;17860-000;Pacaembu;;Brazil
94692 Nevada Court;589 00;Linköping;Östergötland;Sweden
12605 3rd Place;;Daohe;;China
62595 Lillian Crossing;;Curug;;Indonesia
578 Dexter Lane;;Gangkou;;China
1565 Fairview Circle;;Inhambane;;Mozambique
1881 Warbler Trail;;Panzhou;;China
9 Myrtle Parkway;;Mardzad;;Mongolia
306 Morningstar Center;;Shuiyin;;China
37709 Dottie Plaza;44130;Borabue;;Thailand
07838 Nancy Court;;Padangulaktanding;;Indonesia
10308 Shopko Crossing;952-2224;Ishige;;Japan
411 Roth Crossing;63150-000;Campos Sales;;Brazil
140 Eastwood Lane;666137;Khuzhir;;Russia
9 Manley Circle;;Tapakrejo;;Indonesia
10 Oak Crossing;47520-000;Ibotirama;;Brazil
7818 Namekagon Street;1320;København;Region Hovedstaden;Denmark
178 Mallard Court;;Jagabaya Dua;;Indonesia
531 Hoepker Circle;;Caijiapu;;China
838 Algoma Place;;Hekou;;China
97432 Summit Hill;5850;Río Tercero;;Argentina
66046 Scott Parkway;;Bazha;;China
75637 Waxwing Alley;233 94;Svedala;Skåne;Sweden
7132 7th Pass;39280;Las Animas;Guerrero;Mexico
2571 Amoth Lane;4595-075;Eiriz;Porto;Portugal
99642 Rieder Lane;;Voskopojë;;Albania
1 Donald Crossing;89280-000;Corupá;;Brazil
25 Green Point;;Argotirto Krajan;;Indonesia
617 Golf Course Trail;6905;Stamford;Connecticut;United States
73518 Farragut Crossing;;Samothráki;;Greece
12152 Hallows Way;;Fengjiang;;China
29547 Swallow Trail;35220;Kruševica;;Croatia
14 Saint Paul Way;;Pangkalan;;Indonesia
569 Summer Ridge Court;659690;Soloneshnoye;;Russia
514 Dottie Place;623511;Lebedyan’;;Russia
72 Northport Center;L9Y;Collingwood;Ontario;Canada
0288 Cardinal Parkway;;Paico;;Peru
996 Aberg Road;94970;Manlio Fabio Altamirano;Veracruz Llave;Mexico
91 6th Road;;Fengjiang;;China
92577 Memorial Road;;Junín;;Peru
43 Eagan Street;;Kebonagung;;Indonesia
65 Kenwood Point;;Thị Trấn Quán Lào;;Vietnam
1122 Forest Run Junction;4326;Herrera;;Argentina
55345 Canary Street;990-0812;Chitose;;Japan
0062 Myrtle Crossing;5609;Buruanga;;Philippines
46 Bonner Junction;;Ajdabiya;;Libya
349 Declaration Place;;Macheke;;Zimbabwe
59 Nevada Crossing;9100-153;Santa Cruz;Ilha da Madeira;Portugal
77950 Jenifer Hill;2560-234;Torres Vedras;Lisboa;Portugal
9603 Rowland Alley;;Muarabadak;;Indonesia
3 Barnett Hill;6407;San Antonio;;Philippines
85663 Summerview Place;4281;Margate;;South Africa
5612 Melby Junction;788 32;Staré Město;;Czech Republic
56 Kim Center;;Jilong;;China
99610 Blackbird Pass;;Budakovo;;Kosovo
637 Ridgeview Road;;Pasirmalang;;Indonesia
9 Myrtle Terrace;;Sandaotong;;China
9824 Johnson Crossing;6242;Uitenhage;;South Africa
9 Novick Hill;;Tengqiao;;China
216 Riverside Point;7705;Steinkjer;Nord-Trondelag;Norway
8 Dorton Place;95697 CEDEX;Goussainville;Île-de-France;France
656 Logan Place;;Zhaiwu;;China
96 Eggendart Park;;Xiabuji;;China
1 Tennyson Point;;Kebili;;Tunisia
268 Myrtle Avenue;;Lundazi;;Zambia
1 Texas Court;;Atbasar;;Kazakhstan
779 Crest Line Place;665442;Malaya Dubna;;Russia
37 Dorton Circle;4326;Babo-Pangulo;;Philippines
1018 Oriole Terrace;06-302;Przasnysz;;Poland
1 Meadow Vale Court;;Juancheng;;China
32 Hayes Court;;Wangdain;;China
68570 Surrey Way;5313;El Nido;;Philippines
8955 Morrow Hill;7808;Hobart;Tasmania;Australia
7 Pleasure Pass;;Ābdānān;;Iran
74 High Crossing Plaza;88109 CEDEX;Saint-Dié-des-Vosges;Lorraine;France
7 Hagan Alley;462409;Orsk;;Russia
4 Debs Drive;503-1305;Sobue;;Japan
11754 Hintze Center;783 53;Velká Bystřice;;Czech Republic
71524 Eagan Point;299-0271;Kisarazu;;Japan
8 Linden Court;184358;Murmashi;;Russia
517 Farmco Place;11305;Colima;;Costa Rica
7750 Lindbergh Trail;7300;Iraray;;Philippines
82029 Village Green Crossing;78045 CEDEX;Guyancourt;Île-de-France;France
10569 Ridge Oak Court;;Serang;;Indonesia
1580 Warrior Street;;Pingyao;;China
4 Mayfield Alley;;Kefang;;China
89233 Esker Trail;652245;Itatskiy;;Russia
4 Badeau Circle;92883;Corona;California;United States
4490 Bartillon Avenue;1225;Јегуновце;;Macedonia
75 Clarendon Road;08-107;Paprotnia;;Poland
70 Pankratz Park;92592 CEDEX;Levallois-Perret;Île-de-France;France
64286 Daystar Street;30280;Songkhla;;Thailand
81 Jenifer Street;;Sosándra;;Greece
41 Ludington Place;;Doro Oo;;Indonesia
64 Bobwhite Park;;Haradzishcha;;Belarus
979 Monument Avenue;;Tonekābon;;Iran
0 Bowman Plaza;;Náousa;;Greece
74 Schmedeman Center;167032;Syktyvkar;;Russia
19738 Brown Junction;62-040;Puszczykowo;;Poland
1 New Castle Crossing;4890-561;Além do Rio;Braga;Portugal
4 Schmedeman Drive;38944 CEDEX;Meylan;Rhône-Alpes;France
734 Village Green Junction;371 84;Karlskrona;Blekinge;Sweden
43196 Fairview Trail;G9X;La Tuque;Québec;Canada
8 Rusk Way;;Cibeureum;;Indonesia
9678 West Way;683 24;Hagfors;Värmland;Sweden
3 Comanche Point;116 45;Stockholm;Stockholm;Sweden
42225 Express Center;446600;Neftegorsk;;Russia
5 Sachtjen Street;;Biscucuy;;Venezuela
36 Drewry Lane;;Sapotskin;;Belarus
4 Darwin Drive;21-515;Sławatycze;;Poland
2 Grim Pass;649220;Shebalino;;Russia
45969 Maryland Park;;El Espino;;Panama
44 Main Junction;;Lingbei;;China
24763 Monica Way;49580-000;Areia Branca;;Brazil
150 Kenwood Alley;;Karangnongko;;Indonesia
53 Lindbergh Street;;Urcos;;Peru
48 Dahle Alley;;Ariana;;Tunisia
2148 Bashford Terrace;;Merapit;;Indonesia
3655 Mayer Drive;237 24;Bjärred;Skåne;Sweden
898 Duke Place;99730-000;Jacutinga;;Brazil
5 Ohio Circle;2200-499;Sentieiras;Santarém;Portugal
6 Hoffman Parkway;34-130;Kalwaria Zebrzydowska;;Poland
804 Schlimgen Trail;374-0079;Ashikaga;;Japan
18216 Crownhardt Lane;385436;Staraya Stanitsa;;Russia
1621 Redwing Crossing;MD-5134;Donduşeni;;Moldova
51681 Packers Court;;Caper;;Indonesia
4023 Lyons Trail;423371;Sarmanovo;;Russia
8414 Michigan Parkway;;Warungtanjung;;Indonesia
52730 Banding Circle;;Yushan;;China
01095 Shopko Alley;;Tianjiazhai;;China
99937 Green Place;;Kyonju;;South Korea
8 Barnett Trail;55458;Minneapolis;Minnesota;United States
5 Wayridge Crossing;;Yuxi;;China
9 Service Crossing;7300;Begang;;Philippines
35 Dryden Crossing;11905;San Pedro;;Costa Rica
2351 Pennsylvania Hill;48000-000;Alagoinhas;;Brazil
518 Monument Center;;Dmytrivka;;Ukraine
42 Vernon Way;;Cikarang;;Indonesia
992 4th Lane;;Baihua;;China
63500 Columbus Way;;Hội An;;Vietnam
4 Blackbird Trail;;Cimalati;;Indonesia
104 Erie Crossing;83-220;Skórcz;;Poland
6 Browning Avenue;64-300;Nowy Tomyśl;;Poland
83600 Katie Circle;;Talzemt;;Morocco
107 Dovetail Parkway;544529;Cucutilla;;Colombia
176 Coleman Hill;;Káto Miliá;;Greece
840 Hermina Court;;Cancas;;Peru
5369 Dovetail Junction;22005;Huesca;Aragon;Spain
193 Loeprich Alley;290 01;Poděbrady;;Czech Republic
9572 Merchant Plaza;49390-000;Salgado;;Brazil
3843 Canary Hill;;Chenzhuang;;China
4685 High Crossing Terrace;;Ad Dīwānīyah;;Iraq
413 Knutson Crossing;;Divichibazar;;Azerbaijan
861 Stoughton Point;;Saue;;Estonia
2 Everett Center;;Yuhuazhai;;China
01 Troy Court;8000;Burgas;;Bulgaria
3809 Artisan Court;;Sembon;;Indonesia
901 Scoville Parkway;307732;Konyshevka;;Russia
193 Crowley Pass;;Nueva Italia;;Paraguay
8 Carberry Point;34160;Det Udom;;Thailand
87392 Esch Hill;659635;Aya;;Russia
65622 Hazelcrest Pass;5664;Geldrop;Provincie Noord-Brabant;Netherlands
675 Roth Circle;;Mórrope;;Peru
76716 Northwestern Street;453150;Karmaskaly;;Russia
06874 Thackeray Center;611 24;Nyköping;Södermanland;Sweden
16 Carey Place;341 84;Ljungby;Kronoberg;Sweden
3 East Park;957-0353;Ishiki;;Japan
04 Texas Road;3129;Sagana;;Philippines
524 Ilene Terrace;V9L;Duncan;British Columbia;Canada
0 Sunnyside Center;;Nzega;;Tanzania
24628 Monica Crossing;2680;Dupnitsa;;Bulgaria
8 Harbort Hill;;La Mula;;Venezuela
93286 Hazelcrest Pass;;Pakisrejo;;Indonesia
82479 Scoville Place;9241;Lipovci;;Slovenia
066 Canary Junction;;Hengli;;China
61372 Gale Terrace;800-0331;Okazaki;;Japan
85239 Mosinee Parkway;;Tieli;;China
99081 6th Avenue;DN21;Upton;England;United Kingdom
7 Forest Dale Drive;;Paraíso;;Panama
5 School Parkway;929-1576;Hakui;;Japan
15 Maple Street;;Funafuti;;Tuvalu
30417 Buena Vista Place;;Mundri;;Indonesia
5 Roxbury Crossing;E25;Cashel;;Ireland
1 Express Terrace;;Longquan;;China
1 Waxwing Park;37245;Nashville;Tennessee;United States
460 Drewry Hill;4133;Pantijan No 2;;Philippines
115 Sunfield Place;34-116;Bachowice;;Poland
4908 Division Avenue;44570-000;Santo Antônio de Jesus;;Brazil
2 Superior Trail;;Da Nang;;Vietnam
4568 Hallows Plaza;;Skalánion;;Greece
03921 Dottie Center;3943;Porsgrunn;Telemark;Norway
3 Northport Street;;Jielin;;China
2 Mifflin Plaza;3700-622;Mirões;Aveiro;Portugal
07 Stoughton Drive;172115;Vasil’yevskiy Mokh;;Russia
1240 Shasta Drive;1590;Nigel;;South Africa
62904 Sage Junction;;Trà My;;Vietnam
6778 Rigney Court;33715;Saint Petersburg;Florida;United States
9184 Reinke Lane;;Changping;;China
05552 Northview Alley;353831;Novomyshastovskaya;;Russia
010 Rowland Pass;;Kosong;;South Korea
90 Kensington Center;2503;San Eugenio;;Philippines
37123 Stoughton Circle;;Weicheng;;China
0 Upham Plaza;;San Nicolás;;Honduras
69808 Riverside Road;85200-000;Pitanga;;Brazil
052 Red Cloud Alley;;Lengkongjaya;;Indonesia
52 Manufacturers Trail;881 30;Sollefteå;Västernorrland;Sweden
1 Marquette Lane;9320;Tagdanua;;Philippines
32798 Hazelcrest Avenue;;Jami;;Indonesia
28 Eagan Crossing;;San Cristóbal;;Venezuela
7465 Becker Plaza;;Yicheng;;China
6 Stone Corner Circle;;Qinglung;;China
79 Elmside Drive;;Ayaviri;;Peru
3 Kensington Center;;Sukamantri Satu;;Indonesia
122 Myrtle Junction;;Beška;;Serbia
9898 Ridgeview Parkway;59280-000;Macaíba;;Brazil
9946 Logan Court;;Jam;;Iran
23 Merrick Plaza;55457;Sabaneta;;Colombia
90426 Gulseth Pass;;Kasonawejo;;Indonesia
784 Westerfield Crossing;;Shwebo;;Myanmar
9 Tony Trail;26005;Logroño;La Rioja;Spain
072 New Castle Court;607676;Kstovo;;Russia
83030 Donald Pass;4500-695;Nogueira da Regedoura;Aveiro;Portugal
1 Kennedy Alley;6536;Kampokpok;;Philippines
0 Portage Center;357870;Edissiya;;Russia
153 Paget Center;;Sumberngerjat;;Indonesia
8 Pawling Circle;81806;Buenavista;Sinaloa;Mexico
41 Division Lane;;Walakeri;;Indonesia
003 Brown Center;09-414;Brudzeń Duży;;Poland
00 Grasskamp Trail;286-0002;Yatsushiro;;Japan
5813 Oak Place;9242;Khulna;;Bangladesh
01 Sauthoff Terrace;2560-028;A dos Cunhados;Lisboa;Portugal
9579 Walton Avenue;3994;Houten;Provincie Utrecht;Netherlands
1444 Colorado Place;195047;Florencia;;Colombia
256 Banding Lane;;Wuli;;China
49 Hollow Ridge Avenue;8424;Burgos;;Philippines
4666 Mccormick Court;;Nankang;;China
23724 Becker Lane;622012;Gornyye Klyuchi;;Russia
6 Harbort Point;;Changkeng;;China
2 Huxley Way;;Jabungsisir;;Indonesia
68 Redwing Trail;;Jixiang;;China
56 Westend Plaza;;Dazhongzhuang;;China
71 Anderson Point;429052;Krasnyye Chetai;;Russia
493 Vera Plaza;3119;Cut-cut Primero;;Philippines
2222 American Ash Terrace;173501;Volkhovskiy;;Russia
8 West Crossing;172 39;Sundbyberg;Stockholm;Sweden
5212 Northport Hill;;Faqqū‘ah;;Palestinian Territory
18 Milwaukee Drive;;Magepanda;;Indonesia
655 Marquette Pass;06116 CEDEX;Le Cannet;Provence-Alpes-Côte d'Azur;France
7 Morrow Pass;;Tekik Wetan;;Indonesia
01 Mallard Center;42-284;Wręczyca Wielka;;Poland
7 La Follette Circle;314-0116;Okunoya;;Japan
758 Walton Plaza;Y1A;Whitehorse;Yukon Territory;Canada
2888 Eagle Crest Hill;8005-453;Estoi;Faro;Portugal
42 Basil Point;;Gaolong;;China
3 Corscot Pass;460056;Khudoyelanskoye;;Russia
00 Helena Trail;4940-352;Porta;Viana do Castelo;Portugal
3 Northfield Circle;7933;Char Bhadrāsan;;Bangladesh
0304 Comanche Park;;Hele;;China
92639 Thompson Road;649792;Novotroitsk;;Russia
0440 Eagan Center;511 01;Mladá Boleslav;;Czech Republic
051 Manufacturers Court;84902 CEDEX 9;Avignon;Provence-Alpes-Côte d'Azur;France
9384 Transport Drive;;Sidaohezi;;China
816 Havey Place;76150;Phetchaburi;;Thailand
074 Harbort Point;;Sloboda;;Ukraine
85298 Holy Cross Alley;393995;Piterka;;Russia
0157 Vahlen Street;;Kafr ad Dawwār;;Egypt
0589 Westport Junction;;Huangcaotuo;;China
6052 Lukken Park;86110;Lang Suan;;Thailand
0 Oriole Avenue;;Shouchang;;China
75 Badeau Hill;;Xianxi;;China
9 Riverside Junction;6537;Villaba;;Philippines
230 Dahle Crossing;;Shuangshipu;;China
60028 Eagan Center;;Imulolong;;Indonesia
9 Lotheville Street;83120;Ban Talat Nua;;Thailand
2662 Sunfield Crossing;;Yuhang;;China
0 Eliot Way;446378;Novosemeykino;;Russia
34 Dixon Park;20601;Naranjo;;Costa Rica
6201 Portage Drive;67080 CEDEX;Strasbourg;Alsace;France
5 Farmco Road;;Dagang;;China
3285 Harper Crossing;;Turbiv;;Ukraine
63518 Burning Wood Park;8206;Barisāl;;Bangladesh
0592 Fremont Plaza;;Beigao;;China
3703 Nelson Hill;180536;Selishche;;Russia
1101 Kipling Place;662017;Balboa;;Colombia
55 Grasskamp Park;;Galátsi;;Greece
95 Manufacturers Court;3260;Larvik;Vestfold;Norway
8148 Stoughton Lane;;Massawa;;Eritrea
7 West Lane;;Renchaoxi;;China
5 Lien Park;83200-000;Paranaguá;;Brazil
6 Garrison Street;;Rozvadov;;Ukraine
0 Prentice Pass;162250;Kharovsk;;Russia
169 Summer Ridge Alley;;Ibeto;;Nigeria
0 Maple Wood Hill;;Fuyong;;China
3660 Waxwing Street;L-7634;Larochette;;Luxembourg
69 Declaration Terrace;5009;Szolnok;Jász-Nagykun-Szolnok;Hungary
25404 Nancy Terrace;;Tangtuzhui;;China
01 Duke Park;992-0778;Takaoka;;Japan
9 Blue Bill Park Circle;360 01;Karlovy Vary;;Czech Republic
2160 Pine View Court;1540;Kangar;Perlis;Malaysia
20 4th Drive;73130;Thatta;;Pakistan
42150 Dovetail Way;06-413;Ciechanów;;Poland
6 Erie Drive;65540-000;Santa Quitéria do Maranhão;;Brazil
5 Gateway Parkway;664 59;Telnice;;Czech Republic
1 Cordelia Court;;Stavyshche;;Ukraine
2 Donald Court;6116;Eustaquio Lopez;;Philippines
2003 Autumn Leaf Parkway;2721;Calabugao;;Philippines
3401 Oxford Terrace;;Luyang;;China
3683 Straubel Crossing;5688;East London;;South Africa
1389 Mifflin Parkway;14085 CEDEX 9;Caen;Basse-Normandie;France
0088 Macpherson Parkway;262 65;Ängelholm;Skåne;Sweden
71 Clyde Gallagher Pass;28-520;Opatowiec;;Poland
8 Bartelt Court;39209 CEDEX;Saint-Claude;Franche-Comté;France
3386 Maryland Pass;18720-000;Paranapanema;;Brazil
184 Holy Cross Drive;;Dongguan;;China
2222 Stephen Road;31029 CEDEX 4;Toulouse;Midi-Pyrénées;France
99653 Butterfield Court;169 30;Solna;Stockholm;Sweden
248 Springs Way;;Saynshand;;Mongolia
2586 Victoria Alley;;Gaotai;;China
1193 Golf Place;;Tai’an;;China
0083 Autumn Leaf Plaza;;Huaihe;;China
1 Gina Avenue;34140;Bueng Kan;;Thailand
46 Lerdahl Hill;;Quán Hàu;;Vietnam
50 Morning Road;;Stari Kuty;;Ukraine
8592 Drewry Trail;;Zhongfan;;China
25758 Bashford Drive;69060;Pithoro;;Pakistan
1 Petterle Trail;;Bogorejo;;Indonesia
3507 Prairieview Place;;Yishui;;China
4727 Sunnyside Street;96799;Mapusagafou;;American Samoa
240 Vera Point;;Rehnān;;Iran
68 Pankratz Street;;Sibiti;;Republic of the Congo
92 Canary Circle;2342;Ruše;;Slovenia
10 Sage Avenue;;Cikadu;;Indonesia
71 Utah Street;A98;Shankill;;Ireland
97990 Warner Pass;11600;Kelaniya;;Sri Lanka
76 Tennessee Crossing;;Curibaya;;Peru
8 Fallview Alley;;Pedraza La Vieja;;Venezuela
845 Dayton Avenue;7945;Rosebank;;South Africa
7973 Cherokee Junction;;Samaipata;;Bolivia
7490 Cardinal Point;94000-000;Gravataí;;Brazil
0814 Holy Cross Park;83000;Kohlu;;Pakistan
42215 Katie Way;H23;Clones;;Ireland
72 Fisk Point;63-020;Zaniemyśl;;Poland
57502 Mifflin Junction;20709;Laurel;Maryland;United States
8823 Clemons Parkway;81543;München;Bayern;Germany
6 Golf Lane;;Zhongcheng;;China
069 Susan Street;356537;Svetlograd;;Russia
280 Sycamore Center;700 15;Örebro;Örebro;Sweden
9 Hoffman Junction;50634;Kuala Lumpur;Kuala Lumpur;Malaysia
53 David Park;676859;Belogorsk;;Russia
8694 Moulton Lane;11-510;Wydminy;;Poland
9 4th Lane;96980;Hidalgo;Veracruz Llave;Mexico
89 David Road;332 24;Gislaved;Jönköping;Sweden
450 Columbus Avenue;1938;Nāgarpur;;Bangladesh
19 Erie Alley;;Helong;;China
69 Johnson Hill;5223;Jesús María;;Argentina
50535 Brown Center;;Sukamahi Satu;;Indonesia
11 Jay Drive;R1A;Selkirk;Manitoba;Canada
8638 Londonderry Pass;;Mao;;Chad
9050 Texas Pass;;Songqiao;;China
7327 Meadow Valley Way;;Ndjolé;;Gabon
03675 Cardinal Drive;;Kengkou;;China
837 1st Junction;89355;Magdaleno Aguilar;Tamaulipas;Mexico
76 Steensland Crossing;91130;Sanom;;Thailand
3829 Monica Place;;Kafr ad Dīk;;Palestinian Territory
1987 Mallory Drive;32-410;Dobczyce;;Poland
2269 Blue Bill Park Street;;Xilu;;China
7971 Marquette Hill;37-511;Jagiełła;;Poland
095 Barnett Place;14609;Rochester;New York;United States
9 High Crossing Drive;321-4217;Mashiko;;Japan
8319 Killdeer Court;;Nglego;;Indonesia
9939 American Street;420-0949;Yoichi;;Japan
831 Pawling Lane;;Chengjiang;;China
4172 Elka Avenue;;Xianan;;China
24 Di Loreto Street;;Shangjie;;China
06 Larry Point;88872;Kota Kinabalu;Sabah;Malaysia
01281 Johnson Circle;34132;Kassel;Hessen;Germany
17 Mesta Park;;Dhahi;;Yemen
8 Spaight Park;;Pujocucho;;Peru
8523 Sunfield Road;7504;Gradec;;Macedonia
65 Morningstar Terrace;06928 CEDEX;Sophia Antipolis;Provence-Alpes-Côte d'Azur;France
055 Fairview Plaza;76711;Waco;Texas;United States
4279 Weeping Birch Center;86042 CEDEX 9;Poitiers;Poitou-Charentes;France
586 Quincy Park;;Labuhantanggabesar;;Indonesia
46110 Eagle Crest Park;;Sambong;;Indonesia
5 Sachtjen Road;;Qixingtai;;China
40 Mayer Trail;;Gouping;;China
68632 Melvin Pass;;Karangasem Laok;;Indonesia
59823 Talisman Road;73-155;Węgorzyno;;Poland
4 Drewry Parkway;33436;Boynton Beach;Florida;United States
3 Scoville Place;595 01;Velká Bíteš;;Czech Republic
22184 Hooker Street;;Baghdad;;Iraq
8 Holmberg Junction;85754;Tucson;Arizona;United States
55881 4th Junction;37-750;Wawer;;Poland
4 Oxford Circle;;Margasari;;Indonesia
040 Westport Lane;;Graikochóri;;Greece
80 Gale Lane;;Tanout;;Niger
5460 Weeping Birch Pass;;Hexi;;China
4 Schlimgen Road;;Hairag;;China
46081 Warrior Way;507 52;Borås;Västra Götaland;Sweden
063 Parkside Circle;38-212;Brzyska;;Poland
3 Donald Crossing;;Cikawung;;Indonesia
0 Cambridge Point;3521;Bhairab Bāzār;;Bangladesh
62320 Gulseth Circle;5130-065;Ervedosa do Douro;Viseu;Portugal
27606 Grasskamp Crossing;;Tongxing;;China
26 Schmedeman Road;;Dzyarzhynsk;;Belarus
128 Moulton Point;89800-000;Chapecó;;Brazil
1 Hansons Trail;307732;Konyshevka;;Russia
986 Westerfield Street;50001;Shinpokh;;Pakistan
7 Westend Junction;;Ji’ergele Teguoleng;;China
82 Express Road;;Sanjiazi;;China
3 Sachs Parkway;4010;Pila;;Philippines
95 Farragut Street;;Hengpi;;China
14251 Maple Wood Parkway;89714;Carson City;Nevada;United States
35 Buell Center;88-180;Złotniki Kujawskie;;Poland
8 Merrick Parkway;;Al ‘Āliyah;;Tunisia
85 Fisk Hill;87-401;Golub-Dobrzyń;;Poland
44807 Redwing Hill;681 22;Kristinehamn;Värmland;Sweden
192 Glacier Hill Circle;3184;Torrevieja;Comunidad Valenciana;Spain
4 Delladonna Point;;Bakıxanov;;Azerbaijan
021 Coolidge Hill;3016;Santo Tomé;;Argentina
163 Quincy Plaza;;Arazane;;Morocco
52940 Loftsgordon Circle;AB39;Aberdeen;Scotland;United Kingdom
830 Charing Cross Avenue;48203;El Cerrito;Jalisco;Mexico
9 West Street;;Silca;;Honduras
2 Sunbrook Road;27570-000;Cambebba;;Brazil
752 Springs Junction;;Shimen;;China
79 Russell Hill;;Qagan Obo;;China
970 Banding Lane;;Kukuluk;;Indonesia
3632 Cordelia Drive;32-825;Borzęcin;;Poland
2 Farragut Avenue;162510;Kaduy;;Russia
954 Buena Vista Hill;;Cikembar;;Indonesia
84927 Dennis Drive;33480;Ylöjärvi;;Finland
7 Mendota Terrace;;Pengshi;;China
3732 Lake View Court;;Lieyu;;China
06052 Weeping Birch Circle;5504;Surup;;Philippines
6 Johnson Alley;;Duko;;Indonesia
32 Declaration Street;18105;Allentown;Pennsylvania;United States
9978 Bultman Parkway;75817 CEDEX 17;Paris 17;Île-de-France;France
2566 Sloan Trail;;Banjar Ponggang;;Indonesia
9294 Pepper Wood Lane;08-205;Stara Kornica;;Poland
7 Vidon Place;6305;Sindangan;;Philippines
875 Rowland Terrace;3140-555;Tentúgal;Coimbra;Portugal
0152 Loomis Parkway;;Lianhe;;China
1169 Brentwood Junction;;Linghu;;China
88792 Lake View Court;80500;Johor Bahru;Johor;Malaysia
4 Eliot Pass;;Hebi;;China
5888 Bartillon Parkway;;Xingren;;China
599 Oak Street;;Lerrnanist;;Armenia
1 Northfield Way;4620-620;Muro;Porto;Portugal
939 Armistice Crossing;301635;Partizan;;Russia
08792 Sutherland Pass;;Luowan;;China
553 Merchant Center;;Taourirt;;Morocco
4 Norway Maple Pass;;Meniko;;Cyprus
0910 Old Gate Lane;76-020;Bobolice;;Poland
06804 Karstens Way;;Bailang;;China
3 Michigan Park;;Aguelmous;;Morocco
75 Schmedeman Lane;455 31;Munkedal;Västra Götaland;Sweden
44063 Pawling Plaza;E1C;Moncton;New Brunswick;Canada
25792 Dovetail Park;;Xipi;;China
9391 Marquette Trail;;Ngerengere;;Tanzania
85129 Logan Road;353810;Trudobelikovskiy;;Russia
902 Old Gate Road;;Bondokodi;;Indonesia
3864 Brickson Park Way;456510;Dolgoderevenskoye;;Russia
43 Pearson Alley;;Oefatu;;Indonesia
50657 Golden Leaf Place;70174;New Orleans;Louisiana;United States
10 Grasskamp Avenue;676581;Ekimchan;;Russia
8 Saint Paul Alley;;Al Jamālīyah;;Egypt
8 New Castle Drive;;La Mesa;;Panama
7 Stuart Trail;441-2303;Matsudo;;Japan
452 Hazelcrest Crossing;07209 CEDEX;Aubenas;Rhône-Alpes;France
002 Swallow Circle;;Fengle;;China
13 Kropf Lane;;Belén;;Uruguay
95136 Golf View Hill;;Cinunjang;;Indonesia
48 Rusk Street;;Tokmok;;Kyrgyzstan
9 Eagle Crest Plaza;;Tinta;;Peru
7 Holmberg Crossing;;Thị Trấn Trùng Khánh;;Vietnam
485 Sullivan Center;24515;Lynchburg;Virginia;United States
472 Barby Terrace;;Yên Lạc;;Vietnam
0444 Crownhardt Road;5108;Wawa;;Philippines
7 Dovetail Junction;;Manhan;;Mongolia
575 Prairie Rose Center;J5A;Saint-Constant;Québec;Canada
5290 Kipling Drive;70116;New Orleans;Louisiana;United States
76924 Garrison Hill;;Chandal Bā’ī;;Afghanistan
1071 Ridgeway Avenue;;Changqing;;China
72950 Shelley Pass;;Sabhā;;Libya
4 Tony Alley;9450;Ventersburg;;South Africa
93 Sherman Junction;12100;Castellon De La Plana/Castello De La Pla;Comunidad Valenciana;Spain
39 Goodland Circle;;Cimara;;Indonesia
23697 Mallard Center;;Obolo-Eke (1);;Nigeria
22 Ryan Drive;62-620;Brdów;;Poland
2394 Crowley Place;;Karangasem;;Indonesia
92 Sycamore Alley;;Hoolt;;Mongolia
00 8th Crossing;;Shiqiao;;China
231 Fallview Terrace;72-330;Mrzeżyno;;Poland
224 Susan Terrace;;Yanglinwei;;China
52 Aberg Street;4815-019;Conde;Braga;Portugal
00 Amoth Street;943 36;Öjebyn;Norrbotten;Sweden
7 Bellgrove Crossing;;Qianjiang;;China
94536 Lake View Drive;;Quangang;;China
14443 Del Mar Hill;2925-017;Aldeia da Piedade;Setúbal;Portugal
4 Lyons Hill;164 40;Kista;Stockholm;Sweden
57697 Independence Junction;44300-000;Cachoeira;;Brazil
7 Beilfuss Parkway;;Gharyan;;Libya
818 Kensington Road;;Gaokan;;China
33 Schiller Avenue;;Cuntan;;China
58 Kennedy Pass;417 52;Hostomice;;Czech Republic
89 Norway Maple Center;;Hariang;;Indonesia
92 Summit Parkway;94659 CEDEX 1;Rungis;Île-de-France;France
843 Mifflin Avenue;;Casa Quemada;;Honduras
279 Surrey Point;;Nanmen;;China
8449 Dorton Terrace;;Xinan;;China
826 Melby Pass;4960-160;Lage;Viana do Castelo;Portugal
97633 Longview Drive;76011;Arlington;Texas;United States
64 Charing Cross Pass;;Laban;;Indonesia
1 Bluestem Point;802-0044;Kumamoto;;Japan
982 Quincy Hill;;Arshaluys;;Armenia
04001 Heath Pass;;Ocho Rios;;Jamaica
4 Heath Alley;;Saño;;Peru
628 Farragut Trail;;Al Maşlūb;;Yemen
5 Warner Circle;44143;Dortmund;Nordrhein-Westfalen;Germany
6319 Browning Drive;;Ipuh;;Indonesia
0373 Utah Park;93950-000;Xique Xique;;Brazil
7951 Kedzie Center;;Chervonohryhorivka;;Ukraine
2291 Sutteridge Alley;;Changchuan;;China
0 Stang Crossing;;Guoxiang;;China
9333 Muir Terrace;40602;San José;;Costa Rica
321 Scott Lane;;Shuiyuan;;China
55 Rutledge Lane;60078;Palatine;Illinois;United States
529 Rockefeller Point;;Garahan;;Indonesia
8491 Vernon Parkway;36441;San Francisco;Guanajuato;Mexico
27968 Sheridan Way;38096 CEDEX;Villefontaine;Rhône-Alpes;France
1 Marquette Terrace;;Changshou;;China
5676 Crownhardt Alley;;Careva Ćuprija;;Bosnia and Herzegovina
0 Texas Way;;Sillamäe;;Estonia
8 Londonderry Road;26930;Zaragoza;Coahuila De Zaragoza;Mexico
36408 Springs Street;63560-000;Acopiara;;Brazil
47059 Valley Edge Alley;;Qinglung;;China
5467 Bashford Way;64290-000;Altos;;Brazil
603 Victoria Park;;Ghormach;;Afghanistan
4 Del Sol Alley;;Minna;;Nigeria
74494 Shelley Junction;;Kotabaru;;Indonesia
278 Canary Street;;Madruga;;Cuba
75 Gerald Court;44380-000;Cruz das Almas;;Brazil
824 Milwaukee Circle;9400;Río Gallegos;;Argentina
0427 Southridge Park;;Qiaoxia;;China
0022 Bunting Plaza;;Kufayrit;;Palestinian Territory
857 Moulton Point;;Yara;;Cuba
8 Golf Parkway;3055;Cottbus;Brandenburg;Germany
10 Vernon Alley;;Baimi;;China
1187 Mcguire Terrace;95930-000;Cruzeiro do Sul;;Brazil
60 Arapahoe Court;;Muesanaik;;Indonesia
3 Donald Way;;Tintafor;;Sierra Leone
95454 Kinsman Pass;;Deshan;;China
9 Kingsford Road;99500-000;Carazinho;;Brazil
0 Evergreen Crossing;;Lhari;;China
08621 2nd Point;;Kubang;;Indonesia
7 Paget Road;;Huangpu;;China
6243 Tony Street;J0J;Pincher Creek;Alberta;Canada
116 Gateway Court;999-5203;Kawaguchi;;Japan
6934 Harper Hill;;Sancha;;China
17 Grim Court;659700;Pospelikha;;Russia
794 Ridgeview Pass;S9V;Lloydminster;Saskatchewan;Canada
122 Kedzie Pass;;Changgou;;China
47 Manley Lane;;Longzhou;;China
88784 Melrose Place;;Telpaneca;;Nicaragua
5 Pearson Avenue;;Şabrātah;;Libya
0 American Avenue;;Artémida;;Greece
39559 Holy Cross Avenue;366303;Staryye Atagi;;Russia
97 Eagan Pass;89270-000;Guaramirim;;Brazil
65 Hooker Court;;Yingta;;China
23 Glendale Hill;;Kyosai;;South Korea
67150 Sundown Junction;;Nancheng;;China
276 Susan Road;;Wenchi;;Ghana
6 Esch Center;;Besah;;Indonesia
169 Graedel Crossing;33023;Hollywood;Florida;United States
680 Havey Avenue;75062;Irving;Texas;United States
42 Gulseth Pass;;Gegernoong;;Indonesia
6 Farwell Trail;8422;Silae;;Philippines
4030 Pennsylvania Road;;Badai;;China
998 Carpenter Place;19130;Mingora;;Pakistan
34167 Forest Court;2710-151;Barrunchal;Lisboa;Portugal
66531 Dorton Parkway;94970;Manlio Fabio Altamirano;Veracruz Llave;Mexico
80 Goodland Terrace;;Ciharalang;;Indonesia
553 Atwood Court;;Jiabeiyan;;China
71653 Killdeer Junction;;Sarpang;;Bhutan
6 Red Cloud Street;;Ramotswa;;Botswana
35 Comanche Place;;Yirga ‘Alem;;Ethiopia
192 Florence Plaza;43-173;Łaziska Górne;;Poland
29130 Washington Street;;Stende;;Latvia
140 Warrior Place;;Fahraj;;Iran
7503 Village Green Lane;;Condong;;Indonesia
56 Chinook Point;1114;Punolu;;Philippines
84157 Gina Trail;;Novovorontsovka;;Ukraine
99 Oak Valley Road;;Chengzhong;;China
5 Redwing Road;676620;Romny;;Russia
1900 Cardinal Avenue;;Pecoro;;Indonesia
96 Katie Point;;Caohezhang;;China
1 Division Center;37-114;Białobrzegi;;Poland
0821 Sheridan Hill;;Pingdong;;China
9834 Badeau Court;44695-000;Capim Grosso;;Brazil
86834 Rieder Park;40160;Mancha Khiri;;Thailand
0872 Buena Vista Center;;Qiwen;;China
1 Service Place;152616;Uglich;;Russia
61395 Gina Way;95193;Primero de Mayo;Veracruz Llave;Mexico
95122 Forest Park;5039;San Rafael;;Philippines
80 Lighthouse Bay Crossing;2209;Subic;;Philippines
3 Valley Edge Pass;371 79;Karlskrona;Blekinge;Sweden
5490 Ryan Circle;;Jiangnan;;China
0 Prentice Court;6215;Laiya;;Philippines
5 Doe Crossing Point;2114;Abucay;;Philippines
2 Scott Drive;;Francistown;;Botswana
09 Crest Line Street;673550;Sychëvo;;Russia
6 Cottonwood Road;;Changsheng;;China
052 Bultman Terrace;H9X;Sainte-Anne-de-Bellevue;Québec;Canada
3341 Victoria Street;407 53;Rumburk;;Czech Republic
990 Continental Center;;Rudnyy;;Kazakhstan
8414 Stone Corner Alley;;Paingar;;China
1 Shoshone Park;368209;Nizhniy Dzhengutay;;Russia
7110 Buell Place;;Cijambe;;Indonesia
7292 Old Shore Center;98700-000;Ijuí;;Brazil
84807 Brown Point;;Lere;;Nigeria
1176 Evergreen Drive;190 12;Dolní Počernice;;Czech Republic
88 Hanover Pass;35195-000;Belo Oriente;;Brazil
919 Pine View Way;5046;Granada;;Philippines
04958 Walton Drive;95120;Chaloem Phra Kiat;;Thailand
49 Roth Trail;J6V;Repentigny;Québec;Canada
56 Homewood Lane;;Longsheng;;China
1 Canary Drive;;Kanggye-si;;North Korea
4 Express Park;6406;Victoria;;Philippines
5760 Manufacturers Terrace;R14;Castlebridge;;Ireland
0 Crest Line Street;57990;Kuala Lumpur;Kuala Lumpur;Malaysia
21684 Eggendart Parkway;;Pignon;;Haiti
7903 Dexter Point;692854;Sovetskaya;;Russia
173 8th Street;461369;Ilek;;Russia
20154 Becker Junction;;Vavoua;;Ivory Coast
34835 Vera Avenue;;Koni-Djodjo;;Comoros
12 Stone Corner Place;112 50;Stockholm;Stockholm;Sweden
62 Carioca Drive;28025;Madrid;Madrid;Spain
4 Badeau Trail;31422;Gorjani;;Croatia
49 Pepper Wood Parkway;865-0122;Bihoro;;Japan
18769 Vidon Pass;;Danghara;;Tajikistan
1759 Graedel Drive;76711;Waco;Texas;United States
614 Ridgeview Crossing;43-254;Krzyżowice;;Poland
49896 Fieldstone Alley;;Bendo;;Indonesia
8 Tennyson Crossing;;Arrah;;Ivory Coast
4 Stephen Center;;Masḩah;;Palestinian Territory
8 Mcguire Alley;6000;Ankaran;;Slovenia
29 Iowa Junction;4500;San Pedro;;Argentina
06 Summerview Lane;;Foso;;Ghana
9 Lakewood Gardens Circle;83047;Sabanagrande;;Colombia
64560 Mcbride Way;;Ayo;;Peru
94167 Goodland Road;;Cigintung;;Indonesia
4 Maywood Place;859-3802;Ureshino;;Japan
04 Lakewood Street;6600;Maasin;;Philippines
89814 Prentice Junction;;Yeoju;;South Korea
86725 Maywood Point;;Guantang;;China
85 Corry Trail;;Xingguo;;China
17752 Anthes Pass;52460;Krasica;;Croatia
1318 Superior Avenue;6337;El Pardo;;Philippines
89355 Florence Terrace;ZBB;Żebbuġ;;Malta
9852 Sauthoff Court;;Zarichne;;Ukraine
36 Anhalt Junction;;Aoji-ri;;North Korea
32794 Bayside Park;4490-204;Argivai;Porto;Portugal
2435 Eastwood Terrace;9630-224;Algarvia;Ilha de São Miguel;Portugal
312 Arrowood Parkway;;Cungapmimbo;;Indonesia
7202 Gina Parkway;;Zhifang;;China
6 Talmadge Trail;J8B;Sainte-Adèle;Québec;Canada
10 Oneill Parkway;37550-000;Pouso Alegre;;Brazil
5 Coleman Alley;T9N;Bonnyville;Alberta;Canada
7 Oak Valley Court;46140;Samran;;Thailand
90 Twin Pines Center;;Jiuxian;;China
86 Dapin Pass;75396 CEDEX 08;Paris 08;Île-de-France;France
6774 Melvin Lane;54501;Taavetti;;Finland
64090 Morning Alley;21-543;Konstantynów;;Poland
1 Schurz Street;182370;Krasnogorodskoye;;Russia
2 Fairview Court;;Huanan;;China
7 Lyons Park;;Al Qurayn;;Saudi Arabia
8997 Mandrake Plaza;9073;Klagenfurt am Wörthersee;Kaernten;Austria
1620 Merry Plaza;;Ḩurayḑah;;Yemen
10345 Hanson Road;;Kertayuga;;Indonesia
8 Hoepker Place;143814;Tayzhina;;Russia
39 Dahle Court;366301;Chechen-Aul;;Russia
2577 Sycamore Junction;;Suwangi Utara;;Indonesia
12 Village Green Street;;Wenfu;;China
606 Milwaukee Parkway;;Chengbei;;China
3 Swallow Court;;Iparia;;Peru
6483 Steensland Parkway;;Shums’k;;Ukraine
23748 Sherman Circle;93321 CEDEX;Aubervilliers;Île-de-France;France
6 North Pass;;Dondon;;Haiti
986 Corry Street;;Masindi Port;;Uganda
7121 Monica Park;63475-000;Jaguaribe;;Brazil
70026 Arrowood Drive;92139 CEDEX;Issy-les-Moulineaux;Île-de-France;France
203 Shoshone Pass;79400-000;Coxim;;Brazil
08757 Marquette Drive;2350-629;Meia Via;Santarém;Portugal
09056 Loeprich Center;5504;San Andres;;Philippines
8635 Grim Place;385700;Vladimirskaya;;Russia
1142 Old Shore Place;;Taiping;;China
1047 Northfield Terrace;;Guangang;;China
269 Monica Circle;;Lahishyn;;Belarus
4297 New Castle Place;;Mejdan - Obilićevo;;Bosnia and Herzegovina
7 Sutteridge Center;;Ngetkib;;Palau
8 Clyde Gallagher Hill;;Eman;;China
016 Fuller Trail;11407;Jamaica;New York;United States
34742 Delladonna Street;4342;Simod;;Philippines
9737 Dwight Way;569 04;Brněnec;;Czech Republic
57 Calypso Lane;673020;Balyaga;;Russia
7 Sundown Trail;;Citalahab;;Indonesia
5 Ridge Oak Trail;188502;Gorbunki;;Russia
15037 Beilfuss Alley;;Samsan;;South Korea
1 Shopko Park;7200-252;Reguengos de Monsaraz;Évora;Portugal
07382 Jackson Circle;47-344;Walce;;Poland
07 Nancy Court;795 01;Rýmařov;;Czech Republic
6832 Gateway Hill;309573;Chernyanka;;Russia
1 Manufacturers Park;;Shatou;;China
1 Prairie Rose Court;;Mishan;;China
019 Kings Pass;;Yampil’;;Ukraine
016 Wayridge Junction;38900;Santa Anita;Guanajuato;Mexico
04660 Corry Court;88400;Kota Kinabalu;Sabah;Malaysia
87 Springs Road;;Shahr-e Şafā;;Afghanistan
45 Swallow Crossing;;Shiraz;;Iran
474 Hansons Drive;;Hekou;;China
70724 Tony Crossing;;Yongchuan;;China
42 Acker Circle;276038;Mutis;;Colombia
446 Lien Way;;Selenicë;;Albania
81761 Red Cloud Point;;Yebaishou;;China
40630 Park Meadow Avenue;;Cimanglid;;Indonesia
1 Truax Hill;;Sojo;;Peru
74 Londonderry Drive;66-130;Klenica;;Poland
8 Tennessee Plaza;430 01;Krásná Lípa;;Czech Republic
08605 Dawn Road;;Semerak;;Indonesia
24 Scott Avenue;05-320;Mrozy;;Poland
344 Ridge Oak Way;;Luoshui;;China
874 Barby Court;6519;Tagnanan;;Philippines
208 Pierstorff Parkway;;Bantaeng;;Indonesia
2 Commercial Lane;4014;Lumbang;;Philippines
9 Springs Center;56120;Dok Kham Tai;;Thailand
7369 Sycamore Way;112 60;Stockholm;Stockholm;Sweden
59922 Fuller Avenue;;Xarsingma;;China
01776 Cherokee Street;27-425;Waśniów;;Poland
17 Cambridge Plaza;889-1912;Miyakonojō;;Japan
457 Trailsway Place;;Wangbuzhuang;;China
042 Buell Road;13690-000;Descalvado;;Brazil
14735 Jenna Alley;;Hongshanyao;;China
9 Merry Junction;;Gununglarang;;Indonesia
5 Nelson Plaza;;Hucun;;China
72486 Bashford Terrace;;Toshkivka;;Ukraine
0 Stephen Drive;745 44;Enköping;Uppsala;Sweden
9 Kennedy Park;;Chepo;;Panama
809 Monument Lane;2311;Ramos;;Philippines
88 Buhler Hill;;Wenquan;;China
3 Summerview Pass;;Ouyang;;China
93 Pearson Center;671 41;Arvika;Värmland;Sweden
3970 Anniversary Center;;Kamalaputi;;Indonesia
5 Badeau Parkway;;Káto Dhiminió;;Greece
883 Kropf Park;;San Jorge;;Nicaragua
49089 Hayes Center;;Boromlya;;Ukraine
202 Green Ridge Place;;Hacıqabul;;Azerbaijan
52100 Mayer Way;;Mossendjo;;Republic of the Congo
3 Sheridan Place;;Aíyira;;Greece
52 Westridge Way;;Qijiang;;China
92 Kennedy Court;5022;Guimbal;;Philippines
79 Monterey Point;;Jinping;;China
498 Messerschmidt Pass;;Sebegen;;Indonesia
09996 Clove Road;;Lamawan;;China
4 Green Ridge Place;;Dhahab;;Egypt
7953 Mccormick Lane;126 41;Hägersten;Stockholm;Sweden
7268 Beilfuss Circle;;Haitou;;China
30019 Summit Trail;;Liaonan;;China
54 Mccormick Alley;592 31;Vlachovice;;Czech Republic
6434 Quincy Road;196009;Guapi;;Colombia
2054 Loeprich Place;362 25;Nová Role;;Czech Republic
50 Warbler Court;7142;Takaka;;New Zealand
660 Badeau Parkway;;Majiao;;China
0155 Cody Park;;Léfka;;Cyprus
67472 Bayside Center;685518;La Paz;;Colombia
86 Northridge Junction;;Hoani;;Comoros
1847 Ridge Oak Street;27204 CEDEX;Vernon;Haute-Normandie;France
88 Canary Lane;;Sunjia;;China
7 Dapin Park;42-253;Janów;;Poland
94 Maywood Junction;9318;Balindong;;Philippines
7703 Shasta Point;4905-515;Mujães;Viana do Castelo;Portugal
05495 Nancy Hill;;Pasirlimus;;Indonesia
30561 Fuller Center;;Kagoro;;Nigeria
9 Montana Crossing;682071;Novyy Urgal;;Russia
1 Rigney Parkway;899-8607;Sueyoshichō-ninokata;;Japan
7434 Fremont Parkway;;Maroua;;Cameroon
33990 Westridge Alley;4940-374;Sobreiro;Viana do Castelo;Portugal
3947 Bay Terrace;311;Borgarnes;;Iceland
997 Leroy Park;;Santa Ana;;Venezuela
4 Maryland Hill;618541;Mitrofanovka;;Russia
289 Bashford Street;215;Sandur;;Faroe Islands
7610 Surrey Street;;Faraulep;;Micronesia
3 Hooker Junction;8201;Veinticinco de Mayo;;Argentina
6777 Coleman Lane;;Bohicon;;Benin
889 Northwestern Parkway;21292;Srinjine;;Croatia
5825 Crowley Pass;63-308;Gizałki;;Poland
928 Kinsman Trail;;Hepu;;China
6 Hayes Plaza;80891 CEDEX 3;Amiens;Picardie;France
9 Lawn Hill;6607;Silago;;Philippines
117 Forest Run Trail;;Cihaur;;Indonesia
28941 Cardinal Road;;Krajan Alasdowo;;Indonesia
75 Towne Avenue;;Gambut;;Indonesia
0 Clove Lane;;Qingban;;China
0628 Surrey Street;;Cigarogol;;Indonesia
76 Bowman Circle;;Vyshhorod;;Ukraine
7 Bobwhite Junction;51149;Köln;Nordrhein-Westfalen;Germany
09861 Calypso Plaza;;Jorok Dalam;;Indonesia
9092 Trailsway Circle;101 56;Stockholm;Stockholm;Sweden
11 Trailsway Parkway;95210;Stockton;California;United States
85324 Eagle Crest Alley;;Tagta;;Turkmenistan
60 Barnett Junction;;Jingdezhen;;China
579 Milwaukee Street;;Sungailiat;;Indonesia
1061 Hauk Junction;361624;Tyrnyauz;;Russia
7 Florence Hill;;Da’an;;China
55 Northwestern Road;J1X;Magog;Québec;Canada
680 Mendota Park;65765-000;Dom Pedro;;Brazil
04663 Anderson Circle;75756 CEDEX 15;Paris 15;Île-de-France;France
38711 Sugar Circle;;Fengyi;;China
7 Anzinger Park;;Safed;;Israel
5 Mendota Road;;Watodei;;Indonesia
6316 Burrows Center;87-410;Kowalewo Pomorskie;;Poland
781 Waywood Terrace;;Luoping;;China
5337 Veith Way;;Shidong;;China
79609 Moose Way;;Ar Rubū‘;;Yemen
665 Bowman Parkway;186424;Segezha;;Russia
008 Monterey Point;;Bla;;Mali
134 Randy Parkway;;Longsheng;;China
6001 Loeprich Way;;Buyun;;China
0 Pearson Terrace;;Bambous Virieux;;Mauritius
1176 Blackbird Way;5143;Miramar;;Argentina
132 Debs Street;;Chengbei;;China
41309 Welch Way;J0J;Pincher Creek;Alberta;Canada
56112 Becker Parkway;;Thạnh Phú;;Vietnam
2409 Redwing Crossing;368628;Mamedkala;;Russia
783 Grasskamp Avenue;35236;Birmingham;Alabama;United States
8 Comanche Terrace;;Hanjia;;China
04253 Emmet Terrace;;Huaranchal;;Peru
534 Basil Street;90480;Nürnberg;Bayern;Germany
608 Granby Avenue;;Barakani;;Comoros
390 Lighthouse Bay Terrace;;Luowan;;China
16552 Myrtle Plaza;;Xingfeng;;China
58806 Browning Plaza;;Pingtan;;China
173 3rd Terrace;;Sulahan;;Indonesia
8590 Emmet Plaza;;Zhengcun;;China
95442 Scoville Terrace;;Banjar Batuaji Kaja;;Indonesia
28 Veith Avenue;5001;Escuintla;;Guatemala
2949 Elmside Pass;32-610;Oświęcim;;Poland
32 Debra Park;;Heiiyugou;;China
3939 Columbus Way;;Kudang;;Indonesia
732 Dwight Road;669469;Strogino;;Russia
0709 Thierer Road;44409 CEDEX;Rezé;Pays de la Loire;France
533 Tennessee Drive;29688 CEDEX;Roscoff;Bretagne;France
78286 Petterle Place;4805-358;Ronfe;Braga;Portugal
3788 Almo Parkway;45947 CEDEX 9;Orléans;Centre;France
304 Warrior Court;;Ḩuraytān;;Syria
74317 Dakota Trail;;Zhuoshui;;China
02 Graedel Junction;;Loma Alta;;Honduras
968 Bartillon Circle;S3N;Berthierville;Québec;Canada
6908 Milwaukee Avenue;185035;Petrozavodsk;;Russia
43 Thackeray Lane;;Ar Rumaythīyah;;Kuwait
705 Springs Parkway;62214;Benito Juarez;Morelos;Mexico
89718 Fair Oaks Road;;Qukuhu;;China
95 Upham Center;368560;Novokayakent;;Russia
4 Dorton Parkway;;Ejmiatsin;;Armenia
135 Hoffman Avenue;1151;Bungabon;;Philippines
65 Daystar Junction;90736;Sandakan;Sabah;Malaysia
5 Westport Drive;;Sobang;;Indonesia
74522 Spohn Junction;;Vynohradivka;;Ukraine
5671 Iowa Place;;Siderejo;;Indonesia
0 Brentwood Way;;Shigou;;China
14 Kenwood Drive;;Otuzco;;Peru
4879 Green Alley;20184 CEDEX 1;Ajaccio;Corse;France
05 Carberry Crossing;;Nanzhao Chengguanzhen;;China
4240 Forest Dale Pass;606771;Semibratovo;;Russia
56111 Stone Corner Alley;;Benoy;;Chad
6906 Dawn Street;;Krajan C Wonorejo;;Indonesia
090 Kropf Way;;Cacocum;;Cuba
44047 Golf View Street;2914;Sula;;Philippines
7 Ruskin Center;12008;Sibinal;;Guatemala
35789 Service Junction;;Susoh;;Indonesia
2 Magdeline Alley;242774;Rognedino;;Russia
7 Dahle Trail;51048;Municipio de Copacabana;;Colombia
4 Messerschmidt Plaza;;Xijiang;;China
7 Iowa Center;;Tumen;;China
4 Butterfield Junction;69940-000;Sena Madureira;;Brazil
70 Dottie Street;75643 CEDEX 13;Paris 13;Île-de-France;France
5459 Susan Center;37931;Knoxville;Tennessee;United States
76 School Parkway;N6C;London;Ontario;Canada
5312 Holy Cross Road;;San José de Mayo;;Uruguay
976 Sunnyside Alley;;Pedaringan;;Indonesia
5 Stone Corner Place;764517;Buenaventura;;Colombia
7819 Heath Circle;;El Vigía;;Venezuela
065 Waxwing Road;2645;Corral de Bustos;;Argentina
8 Amoth Trail;;Pasrukrajan Satu;;Indonesia
3 Laurel Point;;Manis Mekarwangi;;Indonesia
46 Lerdahl Court;V9C;Langford;British Columbia;Canada
9517 4th Avenue;MD-5040;Floreşti;;Moldova
40 Goodland Alley;602257;Murom;;Russia
5278 Monument Plaza;45630;Alameda;Jalisco;Mexico
1 Rieder Plaza;;Ambian;;Indonesia
426 Columbus Park;;Mir;;Belarus
1147 Fallview Crossing;2380-159;Gouxaria;Santarém;Portugal
94251 Linden Plaza;;Baoxia;;China
4150 Hayes Point;4515-093;Foz Sousa;Porto;Portugal
04153 Loftsgordon Crossing;;Phnom Penh;;Cambodia
6 Atwood Junction;;Baumata;;Indonesia
56844 Crownhardt Junction;;Saqqez;;Iran
08404 Randy Avenue;40990;Shah Alam;Selangor;Malaysia
6 Di Loreto Trail;542 87;Mariestad;Västra Götaland;Sweden
59349 Shelley Terrace;180559;Pskov;;Russia
528 Claremont Drive;13674 CEDEX;Aubagne;Provence-Alpes-Côte d'Azur;France
02527 Victoria Trail;;Bol;;Chad
5 Dorton Terrace;;Zhongxiao;;China
688 Dottie Place;;Changqing;;China
51653 Fairfield Parkway;384 11;Dřiteň;;Czech Republic
84 Russell Trail;;Bilian;;China
78 Prentice Place;2389;Piet Retief;;South Africa
67303 Merry Way;;Qincheng;;China
9 Clarendon Junction;;Tenkodogo;;Burkina Faso
878 Ruskin Park;3220-313;Pedreira;Coimbra;Portugal
482 Eastwood Terrace;;Banraeaba Village;;Kiribati
920 Huxley Circle;;Yongfeng;;China
08439 Crowley Road;;Ranilug;;Kosovo
03 Fair Oaks Way;;Hongqiao;;China
6134 Crownhardt Court;162700;Nelazskoye;;Russia
18 Esker Point;11-102;Iłowo -Osada;;Poland
860 Bellgrove Way;;Koropí;;Greece
83406 Stang Center;J6V;Charlemagne;Québec;Canada
8 Fremont Lane;407 22;Benešov nad Ploučnicí;;Czech Republic
6482 Dottie Junction;;Qīr Moāv;;Jordan
00903 Mariners Cove Pass;36200;Las Palmas;Guanajuato;Mexico
47996 Esker Junction;7350-005;Elvas;Portalegre;Portugal
64451 International Avenue;65204 CEDEX;Bagnères-de-Bigorre;Midi-Pyrénées;France
9 Northridge Terrace;;Chengjiao;;China
85 Morningstar Way;81426;Los Angeles;Sinaloa;Mexico
1 Butternut Road;19005;Teculután;;Guatemala
736 Roxbury Avenue;;Sampit;;Indonesia
9 Knutson Trail;;Māmūnīyeh;;Iran
1 Walton Parkway;;Jahrom;;Iran
60 Dixon Park;57031;Bahāwalnagar;;Pakistan
23698 Di Loreto Lane;;Acomayo;;Peru
341 Sunnyside Center;221;Hafnarfjörður;;Iceland
9209 Memorial Pass;7000;Tandil;;Argentina
09 Maple Wood Court;603 72;Norrköping;Östergötland;Sweden
033 Miller Center;;Sayaq;;Kazakhstan
63333 Green Ridge Way;;Mýrina;;Greece
1 Badeau Way;32885;Orlando;Florida;United States
08 Bobwhite Court;;Farshūţ;;Egypt
09 Manitowish Way;403029;Vyselki;;Russia
9011 Maple Wood Place;;Wangunjaya;;Indonesia
961 Jana Terrace;49505;Grand Rapids;Michigan;United States
865 Lyons Hill;L-6832;Betzdorf;;Luxembourg
01 Crownhardt Center;143031;Nikolina Gora;;Russia
4961 Messerschmidt Way;789 85;Újezd;;Czech Republic
468 Killdeer Center;;Riga;;Latvia
4 Havey Pass;70179;New Orleans;Louisiana;United States
96982 Banding Court;8701;Kalugmanan;;Philippines
610 Birchwood Road;;Shijie;;China
40610 Thackeray Place;;Bududa;;Uganda
210 7th Parkway;;Banjarbaru;;Indonesia
2931 Graedel Crossing;;Colonia Mauricio José Troche;;Paraguay
48 Roxbury Way;;Sukarame;;Indonesia
15284 Corben Lane;;Jalinan;;Indonesia
8 Westerfield Alley;55103;Saint Paul;Minnesota;United States
4 Messerschmidt Plaza;;Javhlant;;Mongolia
57888 Morningstar Parkway;;Qingzhou;;China
591 Vernon Pass;;Issia;;Ivory Coast
0 Express Circle;;Kolirerek;;Indonesia
0714 Lake View Pass;4106;Naghalin;;Philippines
22 Glendale Hill;5122;Musina;;South Africa
68 Declaration Court;38-315;Uście Gorlickie;;Poland
4563 Carey Center;;Xinzhan;;China
4 High Crossing Center;;Gagarin;;Armenia
6 Florence Street;;Kerasochóri;;Greece
96 Clove Park;810;Hveragerði;;Iceland
6 Rutledge Avenue;652245;Itatskiy;;Russia
82732 Nobel Point;;Bungkulan;;Indonesia
78705 Manufacturers Junction;;Boulaouane;;Morocco
228 Moulton Point;612425;Kosino;;Russia
6 Alpine Road;;Aihua;;China
323 Larry Street;57820-000;Murici;;Brazil
311 Jackson Center;60309 CEDEX;Senlis;Picardie;France
6112 Clyde Gallagher Alley;87-522;Ostrowite;;Poland
1 Summit Park;;Ningzhong;;China
840 Dexter Drive;88514;El Paso;Texas;United States
8899 Shasta Pass;;Qeshm;;Iran
1277 Coleman Hill;;Krajan;;Indonesia
40 Hoffman Court;;Buliu;;China
51 Victoria Avenue;;Mykonos;;Greece
